FID_Ottawa,addr_city,addr_house,addr_postc,addr_stree,StoreName,opening_ho,phone,shoptype,website,FID_Otta_1,flag,ONS_ID,NeighName,POPEST,Address,Longitude,Latitude
98,Ottawa,2321,K0A 2T0,Andrew Street,Mulligan's Grocery,Mon-Thu:07:30-20:00;Fri:09:00-21:00;Sat: 08:00-20:00;Sun:10:00-19:00,+1 6134593333,Convenience stores and gas stations,Not Available,90,1,70,North Gower - Kars,5213,"2321 Andrew Street, Ottawa,K0A 2T0",-75.71641482,45.132493099999998
114,Osgoode,5566,K0A 2W0,Osgoode Main Street,Raymonds,Mon-Fri: 06:00-21:00;Sat:: 07:00-22:00'Sun: 08:00-20:00,-5090,Convenience stores and gas stations,http://www.raymonds.ca/,92,1,81,Osgoode - Vernon,5112,"5566 Osgoode Main Street, Osgoode,K0A 2W0",-75.60655779,45.145710010000002
256,Osgoode,5669,K0A 2W0,Cabin St.,Foodland,Mon-Sun:07:00-22:00,16138260355,Supermarkets and traditional formats,http://ontario.foodland.ca/stores/osgoode/?utm_source=G&utm_medium=lpm&utm_campaign=Sobeys,92,1,81,Osgoode - Vernon,5112,"5669 Cabin St., Osgoode,K0A 2W0",-75.60199178,45.149679010000000
115,Richmond,6138,K0A 2Z0,Perth Street,Circle K,Mon-Sun: 24/7,-4491,Convenience stores and gas stations,https://www.circlek.com/store-locator/CA/richmond/6138-perth-st/0868029,82,0,944,Richmond,7669,"6138 Perth Street, Richmond,K0A 2Z0",-75.83900937,45.193863010000001
231,Richmond,5925,K0A 2Z0,Perth Street,C-Store,Mon-Fri: 05:00-23:00;Sat: 06:00-23:00;Sun: 07:00-22:00,-4462,Convenience stores and gas stations,https://macewen.ca/,82,0,944,Richmond,7669,"5925 Perth Street, Richmond,K0A 2Z0",-75.82970576,45.200883210000001
118,Ottawa,5911,K0A 2Z0,Perth Street,Your Independent Grocer,Mon-Sun 08:00-21:00,-8705,Supermarkets and traditional formats,https://www.yourindependentgrocer.ca/store-locator/details/0866,82,0,944,Richmond,7669,"5911 Perth Street, Ottawa,K0A 2Z0",-75.82896436,45.203112009999998
117,Manotick,1160,K4M 1A5,Beaverwood Road,Your Independent Grocer,Mon-Sun 08:00-21:00,-4132,Supermarkets and traditional formats,https://www.yourindependentgrocer.ca/store-locator/details/1618,91,1,64,Manotick,9040,"1160 Beaverwood Road, Manotick,K4M 1A5",-75.68307042,45.222595920000003
501,Manotick,1160,K4M 1A3, Beaverwood Rd,Rexall,Mon-Fri: 09:00-20:00; Sat-Sun 09:00-18:00,-3728,Drugstores,https://www.rexall.ca/storelocator/store/6971?utm_source=G&utm_medium=LPM&utm_campaign=RexallPharmaPlus,91,1,64,Manotick,9040,"1160  Beaverwood Rd, Manotick,K4M 1A3",-75.68216361,45.223036639999997
261,Manotick,5511,K4M 1A7,Manotick Main Street,Circle K,Mon-Sun: 24/7,-6195,Convenience stores and gas stations,https://www.circlek.com/store-locator/CA/manotick/5511-manotick-main-st/0868044,91,1,64,Manotick,9040,"5511 Manotick Main Street, Manotick,K4M 1A7",-75.68636992,45.227265619999997
449,Manotick,5230,K4M 0V1,Mitch Owens Road,Shoppers Drug Mart,Mon-Sun: 08:00-22:00,-8041,Drugstores,https://www.shoppersdrugmart.ca/en/store-locator/store/1366,91,1,64,Manotick,9040,"5230 Mitch Owens Road, Manotick,K4M 0V1",-75.67456681,45.233830519999998
384,Metcalfe,8196,K0A 2P0,Victoria Street,Metcalfe Variety,Mon-Fri: 06:00-20:00;Sat-Sun:07:00-20:00,16138213440,Convenience stores and gas stations,Not Available,93,1,66,Metcalfe,5240,"8196 Victoria Street, Metcalfe,K0A 2P0",-75.47443005,45.234967930000003
325,Nepean,3812,K2J 7B8,Greenbank Road,That Corner Store,Mon-Fri: 09:00-21:00; Sun: 09:00-20:00,-5106,Convenience stores and gas stations,http://www.thatcornerstore.ca/,81,0,952,Stonebridge - Half Moon Bay - Heart's Desire,9464,"3812 Greenbank Road, Nepean,K2J 7B8",-75.73027193,45.242852319999997
125,Ottawa,1618,K2S 1P1,Stittsville Main Street,Ultramar,Mon-Sat:  06:00-22:00;Sun 07:00-22:00,-4992,Convenience stores and gas stations,https://www.ultramar.ca/?utm_source=G&utm_medium=lpm&utm_campaign=parkland,80,0,951,Stittsville,26674,"1618 Stittsville Main Street, Ottawa,K2S 1P1",-75.9166614,45.254397019999999
402,Manotick,1004,K4M 1B2,Manotick Station Rd,Bakker's General Store,Mon-Sun: 08:30-20:00,+1(613) 822-1659,Independent and specialty stores,https://www.facebook.com/bakkersgeneralstore/,91,1,64,Manotick,9040,"1004 Manotick Station Rd, Manotick,K4M 1B2",-75.6246678,45.255766530000002
313,Greely,6045,K4P 0G5,Bank Street,Foodland,Mon-Sun:07:00-22:00,16138213016,Supermarkets and traditional formats,https://foodland.ca/stores/foodland-greely/?utm_source=G&utm_medium=lpm&utm_campaign=Sobeys,95,0,925,Greely,8829,"6045 Bank Street, Greely,K4P 0G5",-75.55471798,45.263363030000001
127,Stittsville,1,K2S 1B2,Hobin Street,Circle K,Mon-Sun: 24/7,-3108,Convenience stores and gas stations,https://www.circlek.com/store-locator/CA/stittsville/1-hobin-st-unit1po-box-1026/0868024,80,0,951,Stittsville,26674,"1 Hobin Street, Stittsville,K2S 1B2",-75.9289376,45.264944419999999
471,Stittsville,1300,K2S 1A3,Stittsville Main Street,Shoppers Drug Mart,Mon-Sun: 08:00-24:00,-2344,Drugstores,https://www.shoppersdrugmart.ca/en/store-locator/store/1246,80,0,951,Stittsville,26674,"1300 Stittsville Main Street, Stittsville,K2S 1A3",-75.9299135,45.265220919999997
85,Greely,1341,K4P 1N3,Meadow Drive,Greely Convenience Store,Mon-Thu:08:00-19:00;Fri:08:00-21:00;Sat:09:00-21:00;Sun:10:0-18:00,16135744000,Convenience stores and gas stations,Not Available,95,0,925,Greely,8829,"1341 Meadow Drive, Greely,K4P 1N3",-75.56219428,45.265452840000002
53,Ottawa,6315,K2S 1S9,Hazeldean Road,Farm Boy,Mon-Fri: 08:00-21:00;Sat-Sun: 08:00-20:00,-6042,Supermarkets and traditional formats,https://www.farmboy.ca/stores/stittsville/,80,0,951,Stittsville,26674,"6315 Hazeldean Road, Ottawa,K2S 1S9",-75.94168831,45.266439320000003
119,Ottawa,3201,K2J 4H9,Greenbank Road,Loblaws,Mon-Sun: 07:00-22:00,-2249,Supermarkets and traditional formats,https://www.loblaws.ca/store-locator/details/1035,111,0,914,Chapman Mills,8212,"3201 Greenbank Road, Ottawa,K2J 4H9",-75.74336654,45.268073930000000
147,Nepean,3777,K2J 4B1,Strandherd Drive,Your Independent Grocer,Mon-Sun 08:00-21:00,-10868,Supermarkets and traditional formats,https://www.yourindependentgrocer.ca/store-locator/details/7377,81,0,952,Stonebridge - Half Moon Bay - Heart's Desire,9464,"3777 Strandherd Drive, Nepean,K2J 4B1",-75.74669334,45.268083230000002
450,Nepean,3781,K2J 5M4,Strandherd Drive,Shoppers Drug Mart,Mon-Sun: 08:00-24:00,-10588,Drugstores,https://www.shoppersdrugmart.ca/en/store-locator/store/643,81,0,952,Stonebridge - Half Moon Bay - Heart's Desire,9464,"3781 Strandherd Drive, Nepean,K2J 5M4",-75.75115384,45.268223030000001
97,Nepean,4315,K2J 5P8,Strandherd Drive,Costco,Mon-Fri: 09:00-20:30;Sat-Sun: 09:00-18:00,-2239,Mass merchandisers / club stores,https://www.costco.ca/warehouse-locations/nepean-ON-1263.html?utm_term=KW&utm_campaign=Homepage&utm_medium=GMB&utm_source=Google&utm_content=Link,81,0,952,Stonebridge - Half Moon Bay - Heart's Desire,9464,"4315 Strandherd Drive, Nepean,K2J 5P8",-75.78438275,45.268297019999999
144,Ottawa,4564,K2P 1Z6,Fallowfield Rd,MacEwen,Mon-Sun: 24/7,16138382768,Convenience stores and gas stations,https://macewen.ca/,82,0,944,Richmond,7669,"4564 Fallowfield Rd, Ottawa,K2P 1Z6",-75.80179766,45.268952419999998
129,Stittsville,1251,K2S 2E5,Stittsville Main Street,Your Independent Grocer,Mon-Sun 08:00-21:00,-10711,Supermarkets and traditional formats,https://www.yourindependentgrocer.ca/store-locator/details/0405,80,0,951,Stittsville,26674,"1251 Stittsville Main Street, Stittsville,K2S 2E5",-75.9285174,45.268998019999998
472,Ottawa,647,K1V 2G2,Earl Armstrong Road,Shoppers Drug Mart,Mon-Sun: 08:00-22:00,-8180,Drugstores,https://www.shoppersdrugmart.ca/en/store-locator/store/1161,68,0,946,Riverside South - Leitrim,10942,"647 Earl Armstrong Road, Ottawa,K1V 2G2",-75.69823722,45.269394329999997
124,Ottawa,685,K1V 2G2,River Road,Quickie,Mon-Fri: 05:30-23:00 ;Sat: 06:00 - 23:00 Sun: 07:00- 22:00,-11210,Convenience stores and gas stations,https://www.quickiestores.com/,68,0,946,Riverside South - Leitrim,10942,"685 River Road, Ottawa,K1V 2G2",-75.69922983,45.269546530000000
146,Nepean,3161,K2J 4H9,Greenbank Road,Bulk Barn,Mon-Fri: 09:30-20:00; Sat:09:30-18:00;Sun:10:00-17:00,-8058,Independent and specialty stores,https://www.bulkbarn.ca/home-en/index_deals.html,111,0,914,Chapman Mills,8212,"3161 Greenbank Road, Nepean,K2J 4H9",-75.74520174,45.269552330000003
39,Gloucester,5546,K1X 1A8,Albion Road,C-Store,Mon-Fri: 05:30-24:00;Sat:05:30-23:00;Sun:07:00-22:00\,17054456645,Convenience stores and gas stations,https://macewen.ca/,95,0,925,Greely,8829,"5546 Albion Road, Gloucester,K1X 1A8",-75.59481819,45.269849729999997
123,Gloucester,685,K1V 2G2,River Road,Your Independent Grocer,Mon-Sun 08:00-22:00,-6183,Supermarkets and traditional formats,https://www.yourindependentgrocer.ca/store-locator/details/7179,68,0,946,Riverside South - Leitrim,10942,"685 River Road, Gloucester,K1V 2G2",-75.69742053,45.270568529999998
243,Kanata,907,K2M 0A8,Eagleson Rd,Circle K,Mon-Sun: 24/7,-7937,Convenience stores and gas stations,https://www.circlek.com/ca/ontario/store-locator/CA/kanata/907-eagleson-road/0801748?utm_source=google&utm_medium=local&utm_campaign=google-local,63,1,13,Bridlewood - Emerald Meadows,21101,"907 Eagleson Rd, Kanata,K2M 0A8",-75.85709088,45.270570919999997
104,Barrhaven,3651,K2J 4G8,Strandherd Drive,Walmart Supercentre,Mon-Sun 07:00-22:00,-10149,Mass merchandisers / club stores,https://www.walmart.ca/en/stores-near-me/barrhaven-ont-3638,111,0,914,Chapman Mills,8212,"3651 Strandherd Drive, Barrhaven,K2J 4G8",-75.74075514,45.271787529999997
120,Ottawa,2201,K2J 4Y6,Greenbank Road,Canadian Tire Gas+,Mon-Fri: 06:00-22:00;Sat-Sun: 07:00-22:00,-4203,Convenience stores and gas stations,http://gasplus.canadiantire.ca/,104,0,937,Old Barrhaven East,22286,"2201 Greenbank Road, Ottawa,K2J 4Y6",-75.74670584,45.272384529999997
400,Stittsville,6061,K2S 1B9,Hazeldean Road,Petro-Canada & Car Wash,Mon-Fri: 06:00-23:00;Sat-Sun:07:00-23:00,16138313017,Convenience stores and gas stations,https://www.petro-canada.ca/en/personal/gas-station-locations/6061-hazeldean-road-stittsville?utm_source=G&utm_medium=lpm&utm_campaign=suncor,80,0,951,Stittsville,26674,"6061 Hazeldean Road, Stittsville,K2S 1B9",-75.9309334,45.272719520000003
72,Kanata,5375,K2S 0T7,Fernbank Road,Bulk Barn,Mon-Fri: 09:30-21:00; Sat:09:30-20:00;Sun:Closed,-4093,Independent and specialty stores,https://www.bulkbarn.ca/home-en/index_deals.html,80,0,951,Stittsville,26674,"5375 Fernbank Road, Kanata,K2S 0T7",-75.87117988,45.273500919999996
491,Nepean,350,K3G 4S4,Cresthaven Dr,Rexall,Mon-Fri: 09:00-20:00; Sat-Sun: 09:00-18:00,-3119,Drugstores,https://www.rexall.ca/storelocator/store/8192,67,0,945,Rideau Crest - Davidson Heights,14566,"350 Cresthaven Dr, Nepean,K3G 4S4",-75.7086988,45.273880480000003
268,Ottawa,350,K2G 4P4,Strandherd Dr.,FreshCo,Mon-Sun: 07:00-23:00,-8704,Supermarkets and traditional formats,https://freshco.com/stores/freshco-strandherd-crestha/,67,0,945,Rideau Crest - Davidson Heights,14566,"350 Strandherd Dr., Ottawa,K2G 4P4",-75.70994073,45.273895529999997
148,Nepean,1581,K2C 3H2,Greenbank Road,Farm Boy,Mon-Fri: 08:00-21:00;Sat-Sun: 08:00-20:00,-3247,Supermarkets and traditional formats,https://www.farmboy.ca/stores/greenbank/,104,0,937,Old Barrhaven East,22286,"1581 Greenbank Road, Nepean,K2C 3H2",-75.74701144,45.274177330000001
451,Nepean,3151,K2J 5N1,Strandherd Drive,Shoppers Drug Mart,Mon-Sun: 08:00-24:00,-10154,Drugstores,https://www.shoppersdrugmart.ca/en/store-locator/store/1302,111,0,914,Chapman Mills,8212,"3151 Strandherd Drive, Nepean,K2J 5N1",-75.71847033,45.274371029999998
121,Nepean,3201,K2J 5N1,Strandherd Drive,Metro,Mon-Fri: 08:00-22:00; Sat-Sun: 08:00-21:00,-10260,Supermarkets and traditional formats,https://www.metro.ca/en/find-a-grocery/276,111,0,914,Chapman Mills,8212,"3201 Strandherd Drive, Nepean,K2J 5N1",-75.72134103,45.274508330000003
47,Ottawa,3580,K2J 5L4,Strandherd Drive,Circle K,Mon-Sun: 24/7,-9344,Convenience stores and gas stations,https://www.circlek.com/ca/ontario/store-locator?utm_source=google&utm_medium=local&utm_campaign=google-local,104,0,937,Old Barrhaven East,22286,"3580 Strandherd Drive, Ottawa,K2J 5L4",-75.73841564,45.274758730000002
71,Stittsville,5357,K2S 0T7,Fernbank Road,Walmart Supercentre,Mon-Sun 07:00-22:00,-4079,Mass merchandisers / club stores,https://www.walmart.ca/en/stores-near-me/kanata-south-on-1118,80,0,951,Stittsville,26674,"5357 Fernbank Road, Stittsville,K2S 0T7",-75.87233558,45.275185720000003
151,Nepean,2201,K2J 4J9,Jockvale Road,Quickie,Mon-Fri: 06:00- 23:00;Sat-Sun: 07:00-23:00,-3357,Convenience stores and gas stations,https://www.quickiestores.com/,1,0,938,Old Barrhaven West,16880,"2201 Jockvale Road, Nepean,K2J 4J9",-75.77712295,45.275516430000003
149,Nepean,3300,K2J 4G5,Woodroffe Avenue,Petro-Canada,Mon-Sun:24/7,-10112,Convenience stores and gas stations,https://www.petro-canada.ca/en/personal/gas-station-locations/3300-woodroffe-avenue-nepean?utm_source=G&utm_medium=lpm&utm_campaign=suncor,104,0,937,Old Barrhaven East,22286,"3300 Woodroffe Avenue, Nepean,K2J 4G5",-75.71964133,45.275911030000003
263,Ottawa,5943,K2S 1B9,Hazeldean Road,Ultramar - Gas Station,Mon-Sun:24/7,16138319252,Convenience stores and gas stations,https://www.ultramar.ca/?utm_source=G&utm_medium=lpm&utm_campaign=parkland,80,0,951,Stittsville,26674,"5943 Hazeldean Road, Ottawa,K2S 1B9",-75.9239174,45.276064620000000
130,Stittsville,5899,K2S 1B9,Hazeldean Road,Waypoint Stittsville,Mon-Fri:06:00-22:00; Sat: 07:00-22:00;Sun 08:00-22:00,-4217,Convenience stores and gas stations,https://waypointconvenience.com/,80,0,951,Stittsville,26674,"5899 Hazeldean Road, Stittsville,K2S 1B9",-75.9208949,45.277910020000000
399,Ottawa,2145,K0A 1L0,Carp Road,Shell Select,Mon-Sun: 24/7,-5236,Convenience stores and gas stations,https://find.shell.com/ca/fuel/12353259-stittsville-ottawa,80,0,951,Stittsville,26674,"2145 Carp Road, Ottawa,K0A 1L0",-75.95540331,45.279203320000001
321,Stittsville,30,K2S 2R1,Iber Road,No Frills,Mon-Sun:08:00-21:00,18669876453,Supermarkets and traditional formats,https://www.nofrills.ca/store-locator/details/3625?utm_source=G&utm_medium=LPM&utm_campaign=Loblaws,80,0,951,Stittsville,26674,"30 Iber Road, Stittsville,K2S 2R1",-75.9127074,45.280753019999999
342,Kanata,800,K2M 2Z2,Stonehaven Drive,Quickie,Mon-Sun: 24/7,-10279,Convenience stores and gas stations,https://www.quickiestores.com/,63,1,13,Bridlewood - Emerald Meadows,21101,"800 Stonehaven Drive, Kanata,K2M 2Z2",-75.83823997,45.281307920000003
316,Kanata,10,K2M 0N2,Cope Drive,Metro,Mon-Fri: 08:00-22:00; Sat-Sun: 08:00 21:00,-7903,Supermarkets and traditional formats,https://www.metro.ca/en/find-a-grocery/385,60,0,924,Glen Cairn - Kanata South Business Park,9152,"10 Cope Drive, Kanata,K2M 0N2",-75.86549588,45.281877919999999
23,Kanata,760,K2M 0A7,Eagleson Road,Real Canadian Superstore,Mon-Sun 07:00-23:00,-6916,Supermarkets and traditional formats,https://www.realcanadiansuperstore.ca/store-locator/details/2813,60,0,924,Glen Cairn - Kanata South Business Park,9152,"760 Eagleson Road, Kanata,K2M 0A7",-75.86654628,45.282774719999999
138,Ottawa,4184,K1V 0Z6,Spratt Road,Circle K,Mon-Sun: 24/7,-4065,Convenience stores and gas stations,https://www.circlek.com/ca/ontario/store-locator/CA/ottawa/4184-spratt-road-unit-1/0801538?utm_source=google&utm_medium=local&utm_campaign=google-local,68,0,946,Riverside South - Leitrim,10942,"4184 Spratt Road, Ottawa,K1V 0Z6",-75.68553832,45.283157830000000
453,Kanata,5709,K2S 0P6,Hazeldean Road,Shoppers Drug Mart,Mon-Sun: 08:00-22:00,-5127,Drugstores,https://www.shoppersdrugmart.ca/en/store-locator/store/1325,80,0,951,Stittsville,26674,"5709 Hazeldean Road, Kanata,K2S 0P6",-75.9119884,45.283786520000000
153,Ottawa,900,K2J 1S8,Greenbank Road,Food Basics,Mon-Fri:08:00-21:00;Sat-Sun:08:00-20:00,-5893,Supermarkets and traditional formats,http://www.foodbasics.ca/,1,0,938,Old Barrhaven West,16880,"900 Greenbank Road, Ottawa,K2J 1S8",-75.75624645,45.284359830000000
404,Nepean,3050,K2J 4G3,Woodroffe Avenue,Nasa Food Centre,Mon: Closed;Tue-Sun: 12:00-20:00,+1(613) 823-8225,Independent and specialty stores,http://nasa-foodcentre.weebly.com/about-us.html,104,0,937,Old Barrhaven East,22286,"3050 Woodroffe Avenue, Nepean,K2J 4G3",-75.72429134,45.284541230000002
334,Ottawa,1,K2G 6A4,Rideaucrest Drive,Quickie,Mon-Sun: 24/7,-5485,Convenience stores and gas stations,https://www.quickiestores.com/,67,0,945,Rideau Crest - Davidson Heights,14566,"1 Rideaucrest Drive, Ottawa,K2G 6A4",-75.72267353,45.284777530000000
133,Stittsville,5703,K2S 0P6,Hazeldean Road,Food Basics,Mon-Fri:08:00-21:00;Sat-Sun:08:00-20:00,+1(613) 831-3394,Supermarkets and traditional formats,http://www.foodbasics.ca/,80,0,951,Stittsville,26674,"5703 Hazeldean Road, Stittsville,K2S 0P6",-75.9135554,45.285187020000002
413,Nepean,605,K2J 6T7,Longfields Dr,A2Z Corner,Sun-Wed: 09:00-19:00;Thi-Fri: 09:00-21:00;Sat: 09:00-20:00,-1266,Independent and specialty stores,Not available,104,0,937,Old Barrhaven East,22286,"605 Longfields Dr , Nepean,K2J 6T7",-75.74567564,45.285335130000000
152,Nepean,808,K2H 8K9,Greenbank Road,Afri Market Place,Mon-Sat: 10:00-20:00; Sun 12:00-17:00,-11219,Independent and specialty stores,http://www.afrimarketplace.ca/,1,0,938,Old Barrhaven West,16880,"808 Greenbank Road, Nepean,K2H 8K9",-75.75664515,45.286803630000001
126,Nepean,3190,K2C 3H1,Prince Of Wales Drive,Shell Select,Mon-Fri: 06:00-23:00; Sat-Sun: 07:00-22:00,-2127,Convenience stores and gas stations,https://find.shell.com/ca/fuel/10053505-prince-of-wales-crestway/en_CA,67,0,945,Rideau Crest - Davidson Heights,14566,"3190 Prince Of Wales Drive, Nepean,K2C 3H1",-75.70326233,45.286867530000002
96,Nepean,3766,K2J 1A1,Fallowfield Road,Petro-Canada,Mon-Sun:24/7,-10202,Convenience stores and gas stations,https://www.petro-canada.ca/en/personal/gas-station-locations/3766-fallowfield-road-nepean?utm_source=G&utm_medium=lpm&utm_campaign=suncor,1,0,938,Old Barrhaven West,16880,"3766 Fallowfield Road, Nepean,K2J 1A1",-75.75719735,45.287281530000001
444,Kanata,680,K2M 2G9,Eagleson Road,Shoppers Drug Mart,Mon-Sun: 08:00-22:00,-5806,Drugstores,https://www.shoppersdrugmart.ca/en/store-locator/store/1270,60,0,924,Glen Cairn - Kanata South Business Park,9152,"680 Eagleson Road, Kanata,K2M 2G9",-75.86844358,45.287344019999999
44,Nepean,3033,K2G 6H2,Woodroffe Avenue,Farm Boy,Mon-Fri: 08:00-21:00;Sat-Sun: 08:00-20:00,-10270,Supermarkets and traditional formats,https://www.farmboy.ca/stores/barrhaven/,67,0,945,Rideau Crest - Davidson Heights,14566,"3033 Woodroffe Avenue, Nepean,K2G 6H2",-75.72406584,45.288660530000001
423,Kanata,500,K2M 1H4,Eagleson Road,Ozan Turkish Market,Mon-Sat: 10:00-19:00;Sun: 1:00-18:00,-1205,Independent and specialty stores,https://framingfirst.com/,60,0,924,Glen Cairn - Kanata South Business Park,9152,"500 Eagleson Road, Kanata,K2M 1H4",-75.87048768,45.291141220000000
73,Kanata,62,K2M 2Y2,Stonehaven Drive,Circle K,Mon-Sun: 24/7,-3104,Convenience stores and gas stations,https://www.circlek.com/ca/ontario/store-locator/CA/kanata/62-stonehaven-ave/0801339?utm_source=google&utm_medium=local&utm_campaign=google-local,63,1,13,Bridlewood - Emerald Meadows,21101,"62 Stonehaven Drive, Kanata,K2M 2Y2",-75.85814568,45.291330729999999
46,Nepean,2950,K2J 4G3,Woodroffe Avenue,Shell Select,Mon-Sun: 24/7,-1671,Convenience stores and gas stations,https://find.shell.com/ca/fuel/10053259-woodroffe-longfields,104,0,937,Old Barrhaven East,22286,"2950 Woodroffe Avenue, Nepean,K2J 4G3",-75.72832014,45.291595630000003
398,Kanata,700,K2L 4H4,Terry Fox Drive,Sobeys,Mon-Sun: 07:00-23:00,-2887,Supermarkets and traditional formats,https://www.sobeys.com/stores/sobeys-kanata/,80,0,951,Stittsville,26674,"700 Terry Fox Drive, Kanata,K2L 4H4",-75.89616019,45.292189319999999
430,Kanata,62,K2M 2Y2,Stonehaven Drive,Spice World Supermarket,Mon-Thu: 10:00-21:00;Fri-Sun: 09:00-21:00,-4112,Independent and specialty stores,https://www.facebook.com/spiceworldkanata/,63,1,13,Bridlewood - Emerald Meadows,21101,"62 Stonehaven Drive, Kanata,K2M 2Y2",-75.85797008,45.292272029999999
45,Nepean,2910,K2J 4G3,Woodroffe Avenue,Barrhaven Market,Mon-Sun: 09:00-21:00,-7713,Independent and specialty stores,https://barrhavenmarket.ca/,104,0,937,Old Barrhaven East,22286,"2910 Woodroffe Avenue, Nepean,K2J 4G3",-75.72877154,45.292797430000000
286,Kanata,500,K2L 2B5,Hazeldean Road,Circle K,Mon-Sun: 24/7,-3779,Convenience stores and gas stations,https://www.circlek.com/ca/ontario/store-locator/CA/kanata/500-hazeldean-rd-unit-20/0801033?utm_source=google&utm_medium=local&utm_campaign=google-local,60,0,924,Glen Cairn - Kanata South Business Park,9152,"500 Hazeldean Road, Kanata,K2L 2B5",-75.89418899,45.292944319999997
250,Ottawa,100,K2L 2V6,Castlefrank Road,Food Africana,Mon:09:00-20:00;Tues-Sat:10:00-20:00;Sun 13:00-18:00,16136086466,Independent and specialty stores,Not Available,60,0,924,Glen Cairn - Kanata South Business Park,9152,"100 Castlefrank Road, Ottawa,K2L 2V6",-75.88169939,45.293582919999999
251,Kanata,100,K2L 2V6,Castlefrank Road,Circle K,Mon-Sun: 24/7,-2830,Convenience stores and gas stations,https://www.circlek.com/ca/ontario/store-locator/CA/kanata/100-castlefrank-rd/0868050?utm_source=google&utm_medium=local&utm_campaign=google-local,60,0,924,Glen Cairn - Kanata South Business Park,9152,"100 Castlefrank Road, Kanata,K2L 2V6",-75.88188949,45.293794530000000
401,Stittsville,225,K2S 1B9,Huntmar Drive,Ultramar - Gas Station,Mon-Sun:24/7,16138366057,Convenience stores and gas stations,https://www.ultramar.ca/en-on/service-stations/services/car-wash/?utm_source=G&utm_medium=lpm&utm_campaign=parkland,80,0,951,Stittsville,26674,"225 Huntmar Drive, Stittsville,K2S 1B9",-75.9276014,45.294040520000003
428,Kanata,484,K2L 1 V4,Hazeldean Road,Best Price Oriental Market,Mon-Thu: 09:30-19:30;Fri 09:00-20:00;Sat: 09:30-19:00;Sun 09:300-18:00,-4279,Independent and specialty stores,Not available,60,0,924,Glen Cairn - Kanata South Business Park,9152,"484 Hazeldean Road, Kanata,K2L 1 V4",-75.89022879,45.295820030000002
52,Ottawa,480,K2L 1V4,Hazeldean Road,Ultramar - Gas Station,Mon-Sun:24/7,16138369248,Convenience stores and gas stations,https://www.ultramar.ca/?utm_source=G&utm_medium=lpm&utm_campaign=parkland,60,0,924,Glen Cairn - Kanata South Business Park,9152,"480 Hazeldean Road, Ottawa,K2L 1V4",-75.88957369,45.296714330000000
136,Gloucester,5026,K1X 1G8,Bank Street,County Line,Mon-Fri: 05:00-23:00;Sat: 06:00-22:00;Sun: 07:00-22:00,-11357,Mass merchandisers / club stores,https://macewen.ca/retail/find-a-macewen/macewen-rideau-road/,95,0,925,Greely,8829,"5026 Bank Street, Gloucester,K1X 1G8",-75.58103729,45.296997040000001
287,Kanata,44,K2L 1V8,Edgewater Street,Circle K,Mon-Sun: 24/7,-8359,Convenience stores and gas stations,https://www.circlek.com/ca/ontario/store-locator/CA/kanata/44-edgewater-st/0852704?utm_source=google&utm_medium=local&utm_campaign=google-local,31,0,929,Katimavik - Hazeldean,11800,"44 Edgewater Street, Kanata,K2L 1V8",-75.90098529,45.297628719999999
422,Kanata,474,K2L 4E5,Hazeldean Road,The Indian Supermarket,Mon-Sun: 10:00-21:00,-2553,Independent and specialty stores,Not available,60,0,924,Glen Cairn - Kanata South Business Park,9152,"474 Hazeldean Road, Kanata,K2L 4E5",-75.88817319,45.297692130000001
80,Nepean,3320,K2J 4P5,Fallowfield Road,Petro-Canada,Mon-Sun:24/7,-2994,Convenience stores and gas stations,https://www.petro-canada.ca/en/personal/gas-station-locations/3320-fallowfield-road-nepean?utm_source=G&utm_medium=lpm&utm_campaign=suncor,104,0,937,Old Barrhaven East,22286,"3320 Fallowfield Road, Nepean,K2J 4P5",-75.73174154,45.297698529999998
54,Ottawa,457,K2L 1V1,Hazeldean Road,Farm Boy,Mon-Fri: 08:00-21:00;Sat-Sun: 08:00-20:00,-9533,Supermarkets and traditional formats,https://www.farmboy.ca/stores/kanata/,31,0,929,Katimavik - Hazeldean,11800,"457 Hazeldean Road, Ottawa,K2L 1V1",-75.88803549,45.299483530000003
393,Kanata,457,K2L 1V1,Hazeldean Road,Bulk Barn,Mon-Fri: 09:30-20:30; Sat09:30-18:00;Sun 10:00-18:00,-6089,Independent and specialty stores,https://www.bulkbarn.ca/home-en/index_deals.html,31,0,929,Katimavik - Hazeldean,11800,"457 Hazeldean Road, Kanata,K2L 1V1",-75.88768439,45.300167930000001
470,Kanata,420,K2L 4B2,Hazeldean Road,Shoppers Drug Mart,Mon-Sun: 08:00-24:00,-4418,Drugstores,https://www.shoppersdrugmart.ca/en/store-locator/store/952,60,0,924,Glen Cairn - Kanata South Business Park,9152,"420 Hazeldean Road, Kanata,K2L 4B2",-75.87981009,45.301776230000002
229,Kanata,7,K2L 1B1,Carbrooke Street,Petro-Canada,Mon-Sun:24/7,-3110,Convenience stores and gas stations,https://www.petro-canada.ca/en/personal/gas-station-locations/7-carbrooke-st-kanata?utm_source=G&utm_medium=lpm&utm_campaign=suncor,60,0,924,Glen Cairn - Kanata South Business Park,9152,"7 Carbrooke Street, Kanata,K2L 1B1",-75.87918649,45.302283330000002
489,Kanata,300," K2M 1C9
",Eagleson Rd,Rexall,Mon-Fri: 09:00-19:00;Sat: 09:00-16:00; Sun: 10:00-16:00,-4310,Drugstores,https://www.rexall.ca/storelocator/store/2204?utm_source=G&utm_medium=LPM&utm_campaign=RexallPharmaPlus,60,0,924,Glen Cairn - Kanata South Business Park,9152,"300 Eagleson Rd, Kanata, K2M 1C9
",-75.87804819,45.302626590000003
319,Kanata,770,K2V 0A1,Silver Seven Road,Costco,Mon-Fri: 09:00-20:30;Sat-Sun: 09:00-18:00,-6432,Mass merchandisers / club stores,https://www.costco.ca/warehouse-locations/kanata-on-541.html,31,0,929,Katimavik - Hazeldean,11800,"770 Silver Seven Road, Kanata,K2V 0A1",-75.9131981,45.302704030000001
55,Kanata,401,K2L 4C6,Hazeldean Road,Circle K,Mon-Sun: 24/7,-3885,Convenience stores and gas stations,https://www.circlek.com/ca/ontario/store-locator/CA/kanata/401-hazeldean-rd/0852519?utm_source=google&utm_medium=local&utm_campaign=google-local,31,0,929,Katimavik - Hazeldean,11800,"401 Hazeldean Road, Kanata,K2L 4C6",-75.87801429,45.304065829999999
38,Kanata,570,K2T 1L2,Terry Fox Drive,Petro-Canada,Mon-Sun:24/7,-1702,Convenience stores and gas stations,https://www.petro-canada.ca/en/personal/gas-station-locations/570-terry-fox-dr-kanata?utm_source=G&utm_medium=lpm&utm_campaign=suncor,61,0,928,Kanata Lakes - Arcardia,12576,"570 Terry Fox Drive, Kanata,K2T 1L2",-75.9156356,45.308047830000000
346,Kanata,500,K2T 1C3,Terry Fox Drive,Canadian Tire Gas+,Mon-Fri: 06:00-22:00;Sat-Sun: 07:00-22:00,-9232,Convenience stores and gas stations,http://gasplus.canadiantire.ca/,61,0,928,Kanata Lakes - Arcardia,12576,"500 Terry Fox Drive, Kanata,K2T 1C3",-75.9167318,45.308734930000000
25,Ottawa,200,K2T 1B6,Earl Grey Drive,Loblaws,Mon-Sun: 07:00-21:00,-11145,Supermarkets and traditional formats,https://www.loblaws.ca/store-locator/details/1114,61,0,928,Kanata Lakes - Arcardia,12576,"200 Earl Grey Drive, Ottawa,K2T 1B6",-75.9164683,45.310056430000003
62,Kanata,501,K2T 1E8,Terry Fox Drive,Circle K,Mon-Sun: 24/7,-8586,Convenience stores and gas stations,https://www.circlek.com/ca/ontario/store-locator/CA/kanata/501-terry-fox-dr/0852703?utm_source=google&utm_medium=local&utm_campaign=google-local,61,0,928,Kanata Lakes - Arcardia,12576,"501 Terry Fox Drive, Kanata,K2T 1E8",-75.9187187,45.310163230000001
264,Ottawa,499,K2T 1H7,Terry Fox Drive,Farm Boy,Mon-Fri: 08:00-21:00;Sat-Sun: 08:00-20:00,-9610,Supermarkets and traditional formats,https://www.farmboy.ca/stores/signature-centre/,61,0,928,Kanata Lakes - Arcardia,12576,"499 Terry Fox Drive, Ottawa,K2T 1H7",-75.9216277,45.310772530000001
463,Kanata,499,K2T 1H7,Terry Fox Drive,Shoppers Drug Mart,Mon-Sun: 08:00-22:00,-10673,Drugstores,https://www.shoppersdrugmart.ca/en/store-locator/store/909,61,0,928,Kanata Lakes - Arcardia,12576,"499 Terry Fox Drive, Kanata,K2T 1H7",-75.9187804,45.311383030000002
323,Kanata,473,K2T 1E8,Terry Fox Drive,Shell,Mon-Sun: 24/7,-6191,Convenience stores and gas stations,https://find.shell.com/ca/fuel/12786378-terry-fox-kanata,61,0,928,Kanata Lakes - Arcardia,12576,"473 Terry Fox Drive, Kanata,K2T 1E8",-75.93278061,45.312269630000003
51,Kanata,150, K2L 2N2,Katimavik Road,Food Basics,Mon-Fri:08:00-21:00;Sat-Sun:08:00-20:00,+1(613) 592-2942,Supermarkets and traditional formats,http://www.foodbasics.ca/,31,0,929,Katimavik - Hazeldean,11800,"150 Katimavik Road, Kanata, K2L 2N2",-75.89565679,45.312659730000000
56,Kanata,106,K2L 2P1,Eagleson Road,Shell Select,Mon-Sun: 24/7,-6817,Convenience stores and gas stations,https://find.shell.com/ca/fuel/10052503-eagleson-rd-timm-dr,31,0,929,Katimavik - Hazeldean,11800,"106 Eagleson Road, Kanata,K2L 2P1",-75.88261119,45.313335629999997
49,Carp,2653,K0A 1L0,March Road,Shell Select,Mon-Sun: 24/7,-3855,Convenience stores and gas stations,https://find.shell.com/ca/fuel/10052539-hwy-49-carp,99,0,911,Carp,6230,"2653 March Road, Carp,K0A 1L0",-76.05045725,45.317564519999998
137,Gloucester,4778,K1T 0K8,Bank Street,Canadian Tire Gas+,Mon-Fri: 06:00-22:00;Sat-Sun: 07:00-22:00,-8303,Convenience stores and gas stations,http://gasplus.canadiantire.ca/,105,0,921,Findlay Creek,4419,"4778 Bank Street, Gloucester,K1T 0K8",-75.5927609,45.318055940000001
240,Ottawa,105,K1T 0W7,Shuttleworth Dr.,Barada Mart,Mon-Sat: 10:00-19:00; Sun: 10:00-18:00,-3237,Independent and specialty stores,https://www.facebook.com/baradamart/,94,0,918,Edwards - Carlsbad Springs,3461,"105 Shuttleworth Dr., Ottawa,K1T 0W7",-75.5922679,45.319026739999998
43,Ottawa,4750,K1T 0K8,Bank Street,FreshCo,Mon-Sun: 07:00-23:00,-5983,Supermarkets and traditional formats,http://www.freshco.com/Find-A-Store.aspx,105,0,921,Findlay Creek,4419,"4750 Bank Street, Ottawa,K1T 0K8",-75.5957939,45.319074739999998
420,Nepean,2150,K2H 9S1,Robertson Road,FreshCo,Mon-Sun: 07:00-23:00,-9376,Supermarkets and traditional formats,https://freshco.com/stores/robertson-moodie/?utm_source=G&utm_medium=lpm&utm_campaign=Sobeys,5,1,7,Bells Corners West,4158,"2150 Robertson Road, Nepean,K2H 9S1",-75.83549298,45.319441830000002
456,Ottawa,4744,K1T 0K8,Bank Street,Shoppers Drug Mart,Mon-Sun: 08:00-22:00,-1800,Drugstores,https://www.shoppersdrugmart.ca/en/store-locator/store/1442,105,0,921,Findlay Creek,4419,"4744 Bank Street, Ottawa,K1T 0K8",-75.59424489,45.319928740000002
490,Nepean,2144,K2H 5Z1,Roberston Rd,Rexall,"Mon-Fri: 09:00-20:00; Sat-Sun: 
09:00- 16:00",-6412,Drugstores,https://www.rexall.ca/storelocator/store/6969,5,1,7,Bells Corners West,4158,"2144 Roberston Rd, Nepean,K2H 5Z1",-75.83589611,45.320767510000003
200,Nepean,418,K2H 8A6,Moodie Drive,Circle K,Mon-Sun: 24/7,-4788,Convenience stores and gas stations,https://www.circlek.com/ca/ontario/store-locator/CA/nepean/418-moodie-dr/0801373?utm_source=google&utm_medium=local&utm_campaign=google-local,5,1,7,Bells Corners West,4158,"418 Moodie Drive, Nepean,K2H 8A6",-75.83320667,45.320958830000002
429,Kanata,60,K2K 2Z9,Colchester Square,Kanata Kash N' Karry,Mon-Sat: 11:00-20:00;Sun: 11:00-19:00,16134355355,Convenience stores and gas stations,Not Available,3,0,902,Beaverbrook,6715,"60 Colchester Square, Kanata,K2K 2Z9",-75.88954779,45.320982729999997
57,Nepean,2135,K2H 5Z2,Robertson Road,Canadian Tire Gas+,Mon-Sun: 07:00-21:00,-10385,Convenience stores and gas stations,http://gasplus.canadiantire.ca/,5,1,7,Bells Corners West,4158,"2135 Robertson Road, Nepean,K2H 5Z2",-75.83608038,45.321508029999997
405,Ottawa,2072,K2H 5Y8,Robertson Road,Bells Corners Mini Mart,Mon-Sat: 08:00-20:00; Sun:08:00-18:00,-6352,Other,http://www.bellscornersminimart.com/,4,1,6,Bells Corners East,4729,"2072 Robertson Road, Ottawa,K2H 5Y8",-75.83122527,45.322385830000002
417,Kanata,5108,K2M 3K5,Kanata Avenue,Kowloon Market,Mon-Sun: 09:00-20:00,16136720066,Independent and specialty stores,Not Available,61,0,928,Kanata Lakes - Arcardia,12576,"5108 Kanata Avenue, Kanata,K2M 3K5",-75.92661021,45.322671630000002
235,Ottawa,1000,K1V 9B4,Airport Parkway Private,Bytown Marche,Mon-Sun:14:30-22:30,-9230,Convenience stores and gas stations,https://yow.ca/en/bytown-marche,27,1,48,Hunt Club - Ottawa Airport,2459,"1000 Airport Parkway Private, Ottawa,K1V 9B4",-75.66710922,45.322723240000002
416,Kanata,5100,K2T 1H5,Kanata Ave,Helpful Neighbour,Mon-Thu:07:00-21:00;Fri:07:00-22:00;Sat: 08:00-22:00;Sun:09:00-21:00,16135920008,Convenience stores and gas stations,Not Available,61,0,928,Kanata Lakes - Arcardia,12576,"5100 Kanata Ave, Kanata,K2T 1H5",-75.92519851,45.323201130000001
69,Nepean,299,"K2H 8K9
",Greenbank Road,Circle K,Mon-Sun: 24/7,-10431,Convenience stores and gas stations,https://www.circlek.com/ca/ontario/store-locator/CA/nepean/299-greenbank-rd/0801280?utm_source=google&utm_medium=local&utm_campaign=google-local,49,1,108,Woodvale - Craig Henry - Manordale - Estates of Arlington Woods,8484,"299 Greenbank Road, Nepean,K2H 8K9
",-75.77736646,45.323815529999997
10,Nepean,250,K2H 8X4,Greenbank Road,Metro,Mon-Fri: 08:00-22:00; Sat-Sun: 08:00-21:00,-10761,Supermarkets and traditional formats,https://www.metro.ca/en/find-a-grocery/271,42,1,100,Trend-Arlington,4738,"250 Greenbank Road, Nepean,K2H 8X4",-75.78020426,45.324245640000001
14,Ottawa,2065,K2H 5H9,Robertson Road,Loblaws,Mon-Sun: 07:00-21:00,-11211,Supermarkets and traditional formats,https://www.loblaws.ca/store-locator/details/1023,4,1,6,Bells Corners East,4729,"2065 Robertson Road, Ottawa,K2H 5H9",-75.83246147,45.324448029999999
139,Gloucester,4727,K1T 3W7,Bank Street,Stinson,Mon-Fri: 05:00-21:00; Sat-Sun: 07:00-21:00,-3183,Convenience stores and gas stations,https://wostinson.com/,105,0,921,Findlay Creek,4419,"4727 Bank Street, Gloucester,K1T 3W7",-75.5955033,45.324966040000000
376,Nepean,1902,K2H 5B8,Robertson Road,Tatka,"Monday : Closed
Tuesday : 10:00 AM–08:00 PM
Wednesday : : 10:00 AM–08:00 PM
Thursday : : 10:00 AM–08:00 PM
Friday : : 10:00 AM–08:00 PM
(Prayer Break : 12:00pm-01:00pm)
Saturday : : 10:00 AM–08:00 PM
Sunday : 10:00 AM–06:00 PM",-3113,Independent and specialty stores,https://www.tatka.ca/,4,1,6,Bells Corners East,4729,"1902 Robertson Road, Nepean,K2H 5B8",-75.82186377,45.326144329999998
222,Nepean,1944,K2G 1E9,Merivale Road,Francis Gas Bar,Mon-Fri: 10:00-18:00;Sat-Sun:Closed,16137234567,Convenience stores and gas stations,http://www.francisfuels.com/,57,1,65,Merivale Gardens - Grenfell Glen - Pineglen - Country Place,2930,"1944 Merivale Road, Nepean,K2G 1E9",-75.72015554,45.326983640000002
254,Nepean,1856,K2H 5B8,Robertson Road,Circle K,Mon-Sun: 24/7,-2032,Convenience stores and gas stations,https://www.circlek.com/ca/ontario/store-locator/CA/ottawa/1856-robertson-rd/0852655?utm_source=google&utm_medium=local&utm_campaign=google-local,4,1,6,Bells Corners East,4729,"1856 Robertson Road, Nepean,K2H 5B8",-75.81974777,45.327145629999997
253,Ottawa,1881,K2H 5B7,Robertson Road,Petro-Canada,Mon-Sun:24/7,-3503,Convenience stores and gas stations,https://www.petro-canada.ca/en/personal/gas-station-locations/1881-robertson-road-nepean?utm_source=G&utm_medium=lpm&utm_campaign=suncor,4,1,6,Bells Corners East,4729,"1881 Robertson Road, Ottawa,K2H 5B7",-75.82138247,45.327390530000002
437,Ottawa,181,K2H 5V6,Greenbank Road,Shoppers Drug Mart,Mon-Sun: 08:00-22:00,-2738,Drugstores,https://www.shoppersdrugmart.ca/en/store-locator/store/1528,49,1,108,Woodvale - Craig Henry - Manordale - Estates of Arlington Woods,8484,"181 Greenbank Road, Ottawa,K2H 5V6",-75.77955236,45.328226540000003
464,Ottawa,1821,K2H 8X3,Robertson Road,Shoppers Drug Mart,Mon-Sun: 08:00-22:00,-5927,Drugstores,https://www.shoppersdrugmart.ca/en/store-locator/store/638,4,1,6,Bells Corners East,4729,"1821 Robertson Road, Ottawa,K2H 8X3",-75.81782937,45.329523530000003
418,Nepean,1925,K2G 1E7,Merivale Road,Drummonds,Mon-Sat:06:00-20:00;Sun:07:00-19:00,-8066,Convenience stores and gas stations,http://www.drummondsgas.com/,79,1,51,Hunt Club South Industrial,733,"1925 Merivale Road, Nepean,K2G 1E7",-75.72052664,45.329683740000000
50,Nepean,1811,K2H 8X3,Robertson Road,Metro,Mon-Fri: 08:00-22:00; Sat-Sun: 08:00-21:00,-8361,Supermarkets and traditional formats,https://www.metro.ca/en/find-a-grocery/287,4,1,6,Bells Corners East,4729,"1811 Robertson Road, Nepean,K2H 8X3",-75.81726587,45.330217529999999
186,Kanata,1031,K2K 1R2,Teron Road,Circle K,Mon-Sun: 24/7,-5204,Convenience stores and gas stations,https://www.circlek.com/ca/ontario/store-locator/CA/kanata/1031-teron-road/0800358?utm_source=google&utm_medium=local&utm_campaign=google-local,3,0,902,Beaverbrook,6715,"1031 Teron Road, Kanata,K2K 1R2",-75.9003672,45.330580630000000
255,Gloucester,4505,K1T 3W5,Bank Street,Quickie,Mon-Sun: 24/7,-3735,Convenience stores and gas stations,https://www.quickiestores.com/,101,0,926,Greenbelt,2073,"4505 Bank Street, Gloucester,K1T 3W5",-75.5994454,45.331451940000001
70,Ottawa,2162,"K2E 0A1
",Prince Of Wales Drive,Circle K,Mon-Sun: 24/7,-10024,Convenience stores and gas stations,https://www.circlek.com/ca/ontario/store-locator/CA/nepean/2162-prince-of-wales-dr/0852536?utm_source=google&utm_medium=local&utm_campaign=google-local,79,1,51,Hunt Club South Industrial,733,"2162 Prince Of Wales Drive, Ottawa,K2E 0A1
",-75.70192733,45.333341040000001
102,Ottawa,4000,K1V 2E8,Riverside Drive,Petro-Canada,Mon-Sun:24/7,-9940,Convenience stores and gas stations,https://www.petro-canada.ca/en/personal/gas-station-locations/4000-riverside-drive-ottawa?utm_source=G&utm_medium=lpm&utm_campaign=suncor,62,0,927,Hunt Club Woods - Quintarra - Revelstoke,5953,"4000 Riverside Drive, Ottawa,K1V 2E8",-75.69400083,45.333705539999997
101,Ottawa,224,K1V 1C1,Hunt Club Road,大統華 T&T Supermarket,Mon-Sun: 09:00-22:00,-9456,Supermarkets and traditional formats,https://www.tntsupermarket.com/eng/,27,1,48,Hunt Club - Ottawa Airport,2459,"224 Hunt Club Road, Ottawa,K1V 1C1",-75.69019833,45.334063039999997
128,Nepean,1545,K2G 1W2,Woodroffe Avenue,Circle K,Mon-Sun: 24/7,-7294,Convenience stores and gas stations,https://www.circlek.com/ca/ontario/store-locator/CA/nepean/1545-woodroffe-ave/0852287?utm_source=google&utm_medium=local&utm_campaign=google-local,44,1,99,Tanglewood,4928,"1545 Woodroffe Avenue, Nepean,K2G 1W2",-75.75177785,45.334487039999999
134,Ottawa,1857,K2G 1E3,Merivale Road,Shell Select,Sun-Fri: 06:00-23:00; Sat: 07:00-22:00,-10113,Convenience stores and gas stations,https://find.shell.com/ca/fuel/10052914-merivale-rd-hunt-club,79,1,51,Hunt Club South Industrial,733,"1857 Merivale Road, Ottawa,K2G 1E3",-75.72365384,45.335481240000000
312,Nepean,565,K2G 5W5,West Hunt Club Road,Bombay Spices,Mon-Sun: 10:00-21:00,-8764,Independent and specialty stores,http://www.bombayspices.ca/,44,1,99,Tanglewood,4928,"565 West Hunt Club Road, Nepean,K2G 5W5",-75.72909244,45.335591639999997
488,Kanata,4048,K2K 1Y1,Carling Ave,Rexall,Mon-Fri: 09:00-19:00; Sat-Sun: 09:00-17:00,-6399,Drugstores,https://www.rexall.ca/storelocator/store/1453?utm_source=G&utm_medium=LPM&utm_campaign=RexallPharmaPlus,103,0,907,Brookside - Briarbrook - Morgan's Grant,14940,"4048 Carling Ave, Kanata,K2K 1Y1",-75.90696231,45.336697710000003
13,Kanata,4048,K2K 1Y1,Carling Avenue,Metro,Mon-Fri: 08:00-22:00; Sat-Sun: 08:00-21:00,-1681,Supermarkets and traditional formats,https://www.metro.ca/en/find-a-grocery/269,103,0,907,Brookside - Briarbrook - Morgan's Grant,14940,"4048 Carling Avenue, Kanata,K2K 1Y1",-75.9072589,45.336887630000000
162,Ottawa,401,K2K 0K1,March Road,Corner Store,Mon-Sun: 24/7,-9365,Convenience stores and gas stations,https://www.ultramar.ca/?utm_source=G&utm_medium=lpm&utm_campaign=parkland,103,0,907,Brookside - Briarbrook - Morgan's Grant,14940,"401 March Road, Ottawa,K2K 0K1",-75.9115941,45.337582230000002
388,Nepean,1849,K2G 1E3,Merivale Road,Costco,Mon-Fri: 09:00-20:30;Sat-Sun: 09:00-18:00,16137274786,Mass merchandisers / club stores,https://www.costco.ca/,79,1,51,Hunt Club South Industrial,733,"1849 Merivale Road, Nepean,K2G 1E3",-75.72228654,45.337839740000000
214,Nepean,197,K2G 2Y5,Norice Street,Maya Market,Mon-Sat:10:00-20:00; Sun: 10:00-16:00,16133214561,Independent and specialty stores,http://maya-market-inc.business.site/,21,1,31,Cityview - Crestview - Meadowlands,8545,"197 Norice Street, Nepean,K2G 2Y5",-75.75399435,45.339660639999998
224,Kanata,479,K2K 2M5,March Road,Circle K,Mon-Sun: 24/7,-1887,Convenience stores and gas stations,https://www.circlek.com/ca/ontario/store-locator/CA/kanata/479-march-rd/0852609?utm_source=google&utm_medium=local&utm_campaign=google-local,103,0,907,Brookside - Briarbrook - Morgan's Grant,14940,"479 March Road, Kanata,K2K 2M5",-75.9168682,45.342113429999998
311,Ottawa,2545,K2H 7B3,Baseline Road,Circle K,Mon-Sun: 24/7,-9527,Convenience stores and gas stations,https://www.circlek.com/ca/ontario/store-locator/CA/ottawa/2545-baseline-rd/0852389?utm_source=google&utm_medium=local&utm_campaign=google-local,29,1,54,Iris - Queensway Terrance South,5824,"2545 Baseline Road, Ottawa,K2H 7B3",-75.78638226,45.342165340000001
192,Ottawa,2529, K2C 0E3,Baseline Road,Big Joe's Convenience,Mon-Sun: 07:00-23:00,-8596,Other,Not avaliable,29,1,54,Iris - Queensway Terrance South,5824,"2529 Baseline Road, Ottawa, K2C 0E3",-75.78540506,45.342415940000002
94,Nepean,1431,K2G 1V9,Woodroffe Avenue,Petro-Canada,Mon-Sun:24/7,-4739,Convenience stores and gas stations,https://www.petro-canada.ca/en/personal/gas-station-locations/1431-woodroffe-avenue-nepean?utm_source=G&utm_medium=lpm&utm_campaign=suncor,21,1,31,Cityview - Crestview - Meadowlands,8545,"1431 Woodroffe Avenue, Nepean,K2G 1V9",-75.75622085,45.342628840000003
356,Ottawa,3705,K1V 1G8,Riverside Drive,Circle K,Mon-Sun: 24/7,-11075,Convenience stores and gas stations,https://www.circlek.com/ca/ontario/store-locator/CA/ottawa/3705-riverside-dr/0852656?utm_source=google&utm_medium=local&utm_campaign=google-local,62,0,927,Hunt Club Woods - Quintarra - Revelstoke,5953,"3705 Riverside Drive, Ottawa,K1V 1G8",-75.69043873,45.342680039999998
165,Ottawa,690,K1V 1C3,Hunt Club Road,Petro-Canada,Mon-Sun:24/7,16137373155,Convenience stores and gas stations,https://www.petro-canada.ca/en/personal/gas-station-locations/690-hunt-club-road-ottawa?utm_source=G&utm_medium=lpm&utm_campaign=suncor,27,1,48,Hunt Club - Ottawa Airport,2459,"690 Hunt Club Road, Ottawa,K1V 1C3",-75.66977582,45.342845040000000
425,Ottawa,2900,K1V 1C3,Gibford Drive,Sunny Mart,Not available,-2525,Convenience stores and gas stations,Not available,27,1,48,Hunt Club - Ottawa Airport,2459,"2900 Gibford Drive, Ottawa,K1V 1C3",-75.66828282,45.342861540000001
465,Ottawa,1642,K2G 4A1,Merivale Road,Shoppers Drug Mart,Mon-Sun: 08:00-22:00,-1993,Drugstores,https://www.shoppersdrugmart.ca/en/store-locator/store/910,21,1,31,Cityview - Crestview - Meadowlands,8545,"1642 Merivale Road, Ottawa,K2G 4A1",-75.73111304,45.344750939999997
113,Carp,3744,K0A 1L0,Carp Road,Carp Foodliner,Mon-Sat: 10:00-18;Sun: 10:00-17:00,-1370,Convenience stores and gas stations,Not available,99,0,911,Carp,6230,"3744 Carp Road, Carp,K0A 1L0",-76.03594044,45.344898530000002
37,Ottawa,5336,K0A 1K0,Boundary Road,Petro-Canada,Mon-Fri:06:00-23:00;Sat-Sun: 07:00-23:00,16138226642,Convenience stores and gas stations,https://www.petro-canada.ca/en/personal/gas-station-locations/690-hunt-club-road-ottawa?utm_source=G&utm_medium=lpm&utm_campaign=suncor,94,0,918,Edwards - Carlsbad Springs,3461,"5336 Boundary Road, Ottawa,K0A 1K0",-75.44376505,45.344899050000002
266,Ottawa,1705,K2G 3K2,Merivale Road,Metro,Mon-Fri: 08:00-21:00; Sat-Sun: 09:00-20:00,-8160,Supermarkets and traditional formats,https://www.metro.ca/en/find-a-grocery/290,8,0,905,Borden Farm - Fisher Glen,6960,"1705 Merivale Road, Ottawa,K2G 3K2",-75.72806884,45.345012840000003
140,Ottawa,2950,K1T 1N8,Bank Street,Farm Boy,Mon-Fri: 08:00-21:00;Sat-Sun: 08:00-20:00,-8202,Supermarkets and traditional formats,https://www.farmboy.ca/stores/blossom-park/,7,1,52,Hunt Club Upper -Blossom Park - Timbermill,8614,"2950 Bank Street, Ottawa,K1T 1N8",-75.62601891,45.345666250000001
265,Ottawa,1642,K2G 4A1,Merivale Road,Farm Boy,Mon-Fri: 08:00-21:00;Sat-Sun: 08:00-20:00,+1 613-228-7417,Supermarkets and traditional formats,https://www.farmboy.ca/stores/nepean/,21,1,31,Cityview - Crestview - Meadowlands,8545,"1642 Merivale Road, Ottawa,K2G 4A1",-75.73227004,45.346458239999997
308,Nepean,1620,K2G 3G3,Merivale Road,Silk Road Foods,Mon-Sat: 09:00-21:00;Sun: 09:00-20:00,16136953631,Independent and specialty stores,https://www.silkroadfoods.ca/,21,1,31,Cityview - Crestview - Meadowlands,8545,"1620 Merivale Road, Nepean,K2G 3G3",-75.73274274,45.347447539999997
61,Ottawa,2770,K2C 1E6,Iris Street,Shell Select,Mon-Sun: 24/7,-2134,Convenience stores and gas stations,https://find.shell.com/ca/fuel/10052962-greenbank-iris-st,29,1,54,Iris - Queensway Terrance South,5824,"2770 Iris Street, Ottawa,K2C 1E6",-75.78823996,45.347523840000001
100,Ottawa,100,K2B 8C1,Bayshore Drive,Walmart Supercentre,Mon-Sun 07:00-22:00,-6922,Mass merchandisers / club stores,https://www.walmart.ca/en/stores-near-me/bayshore-shopping-centre-ottawa-3066,100,0,901,Bayshore - Belltown,9313,"100 Bayshore Drive, Ottawa,K2B 8C1",-75.80527777,45.347984140000001
141,Gloucester,2931,K1T 1N7,Bank Street,Pioneer - Gas Station,Mon-Sun: 24/7,-2210,Convenience stores and gas stations,https://www.pioneer.ca/?utm_source=G&utm_medium=lpm&utm_campaign=parkland,7,1,52,Hunt Club Upper -Blossom Park - Timbermill,8614,"2931 Bank Street, Gloucester,K1T 1N7",-75.62515231,45.348040540000000
168,Gloucester,4000,K1T 2C4,Bridle Path Drive,Circle K,Mon-Sun: 24/7,-6414,Convenience stores and gas stations,https://www.circlek.com/store-locator/CA/gloucester/4000-bridle-path-drive/0868049,22,1,38,Emerald Woods - Sawmill Creek,5309,"4000 Bridle Path Drive, Gloucester,K1T 2C4",-75.64540211,45.348394140000003
329,Ottawa,1400,K2C 2Y6,Highgate Road,Circle K,Mon-Sun: 24/7,-2947,Convenience stores and gas stations,https://www.circlek.com/ca/ontario/store-locator/CA/ottawa/1402-highgate-rd/0800802?utm_source=google&utm_medium=local&utm_campaign=google-local,29,1,54,Iris - Queensway Terrance South,5824,"1400 Highgate Road, Ottawa,K2C 2Y6",-75.76983785,45.348907040000000
386,Nepean,1584,K2G 3K1,Merivale Road,Circle K,Mon-Sun: 24/7,-2739,Convenience stores and gas stations,https://www.circlek.com/ca/ontario/store-locator/CA/nepean/1584-merivale-rd/0852278?utm_source=google&utm_medium=local&utm_campaign=google-local,21,1,31,Cityview - Crestview - Meadowlands,8545,"1584 Merivale Road, Nepean,K2G 3K1",-75.73359274,45.350129840000001
460,Ottawa,3310,K1V 9S1,Mccarthy Road,Shoppers Drug Mart,Mon-Sun: 08:00-22:00,-3970,Drugstores,https://www.shoppersdrugmart.ca/en/store-locator/store/629,28,1,49,Hunt Club East - Western Community,10784,"3310 Mccarthy Road, Ottawa,K1V 9S1",-75.67145552,45.350137439999997
426,Kanata,700,K2K 2V9,March Road,Shirin Market,Mon-Tues: 09:00-19:00;Wed-Sat: 09:00-20:00;Sun: 10:00-18:00,16135917001,Independent and specialty stores,Not Available,103,0,907,Brookside - Briarbrook - Morgan's Grant,14940,"700 March Road, Kanata,K2K 2V9",-75.92416081,45.350376330000003
158,Ottawa,3310,K1V 9S1,Mccarthy Road,Metro,Mon-Fri: 08:00-22:00; Sat-Sun: 08:00-21:00,-3909,Supermarkets and traditional formats,https://www.metro.ca/en/find-a-grocery/266,28,1,49,Hunt Club East - Western Community,10784,"3310 Mccarthy Road, Ottawa,K1V 9S1",-75.67215882,45.350555540000002
180,Ottawa,3332,K1V 0H9,Mccarthy Road,Quickie,Mon-Sun: 24/7,-2368,Convenience stores and gas stations,https://www.quickiestores.com/,28,1,49,Hunt Club East - Western Community,10784,"3332 Mccarthy Road, Ottawa,K1V 0H9",-75.67027482,45.350886840000001
34,Ottawa,720,K2K 2R9,March Road,Shell Select,Mon-Sun: 24/7,-7410,Convenience stores and gas stations,https://find.shell.com/ca/fuel/10053230-march-rd-shirley-s-brook,103,0,907,Brookside - Briarbrook - Morgan's Grant,14940,"720 March Road, Ottawa,K2K 2R9",-75.92628531,45.351039430000000
12,Nepean,200,K2E 7Z8,Grant Carman Drive,Your Independent Grocer,Mon-Sun 08:00-21:00,-3011,Supermarkets and traditional formats,https://www.yourindependentgrocer.ca/store-locator/details/7186,8,0,905,Borden Farm - Fisher Glen,6960,"200 Grant Carman Drive, Nepean,K2E 7Z8",-75.73079544,45.351279239999997
32,Ottawa,1980,K2C 0C6,Baseline Road,Loblaws,Mon-Sun: 07:00-22:00,-4535,Supermarkets and traditional formats,https://www.loblaws.ca/store-locator/details/1050,21,1,31,Cityview - Crestview - Meadowlands,8545,"1980 Baseline Road, Ottawa,K2C 0C6",-75.75949885,45.351944039999999
58,Ottawa,3420,K2H 5B1,Carling Avenue,MacEwen,Mon:07:00-20:45;Tues-Fri: 07:00-21:00;Sat-Sun: 07:00-20:00,16138280728,Convenience stores and gas stations,https://macewen.ca/,69,1,32,Crystal Bay - Lakeview Park,3815,"3420 Carling Avenue, Ottawa,K2H 5B1",-75.83551738,45.352020140000000
267,Ottawa,1121,K2C 2Z1,Cobden Road,Iris Food Mart,Mon-Sun:08:00-22:00,16138288417,Convenience stores and gas stations,Not Available,29,1,54,Iris - Queensway Terrance South,5824,"1121 Cobden Road, Ottawa,K2C 2Z1",-75.77776416,45.352604540000002
257,Nepean,1595,K2G 3J4,Merivale Road,FreshCo,Mon-Sun: 07:00-23:00,-2489,Supermarkets and traditional formats,https://freshco.com/stores/merivale-meadowlands/?utm_source=G&utm_medium=lpm&utm_campaign=Sobeys,19,0,950,Skyline - Fisher Heights,4373,"1595 Merivale Road, Nepean,K2G 3J4",-75.73270744,45.352795839999999
500,Ottawa,1595,K2G 3J4,Merivale Rd,Rexall,Mon-Fri: 08:00-18:00; Sat-Sun: 08:00-18:00,-8158,Drugstores,https://www.rexall.ca/storelocator/store/398?utm_source=G&utm_medium=LPM&utm_campaign=RexallPharmaPlus,19,0,950,Skyline - Fisher Heights,4373,"1595 Merivale Rd , Ottawa,K2G 3J4",-75.73274686,45.353027310000002
289,Ottawa,2430,K1V 0T7,Bank Street,African Queen,Mon-Sat: 09:00-20:00;Sun:12:00-18:00,-6717,Independent and specialty stores,Not available,43,1,97,South Keys - Greenboro West,4221,"2430 Bank Street, Ottawa,K1V 0T7",-75.64866322,45.353228950000002
170,Ottawa,2498,K1V 8S2,Bank Street,Shell Select,Mon-Sun: 24/7,-3162,Convenience stores and gas stations,https://find.shell.com/ca/fuel/10052640-bank-st-albion-rd,22,1,38,Emerald Woods - Sawmill Creek,5309,"2498 Bank Street, Ottawa,K1V 8S2",-75.64330002,45.353329950000003
171,Gloucester,2536,K1T 1M9,Bank Street,Petro-Canada,Mon-Sun:24/7,-8203,Convenience stores and gas stations,https://www.petro-canada.ca/en/personal/gas-station-locations/2536-bank-st-gloucester?utm_source=G&utm_medium=lpm&utm_campaign=suncor,7,1,52,Hunt Club Upper -Blossom Park - Timbermill,8614,"2536 Bank Street, Gloucester,K1T 1M9",-75.64191981,45.353592550000002
274,Nepean,1896,K2C 3W9,Prince Of Wales Drive,Prince of Wales Market,Mon-Sun: 08:00-22:00,16137279865,Convenience stores and gas stations,https://instagram.com/hastymarketprinceofwales?utm_medium=copy_link,11,1,16,Carleton Heights - Rideauview,6852,"1896 Prince Of Wales Drive, Nepean,K2C 3W9",-75.70507154,45.353705140000002
59,Nepean,3095,K2H 5A5,Carling Avenue,Petro-Canada,Mon-Sun:24/7,-4732,Convenience stores and gas stations,https://www.petro-canada.ca/en/personal/gas-station-locations/3095-carling-avenue-nepean?utm_source=G&utm_medium=lpm&utm_campaign=suncor,100,0,901,Bayshore - Belltown,9313,"3095 Carling Avenue, Nepean,K2H 5A5",-75.80879737,45.353870039999997
88,Nepean,1548,K2G 3J8,Merivale Rd,Shell Select,Mon-Sun: 24/7,-7149,Convenience stores and gas stations,https://find.shell.com/ca/fuel/10052894-merivale-rd-rossland,21,1,31,Cityview - Crestview - Meadowlands,8545,"1548  Merivale Rd, Nepean,K2G 3J8",-75.73627714,45.354227139999999
247,Nepean,1547,K2G 4V3,Merivale Road,Indian Supermarket,Mon-Sun:10:00-21:00,16132740202,Convenience stores and gas stations,Not Available,19,0,950,Skyline - Fisher Heights,4373,"1547 Merivale Road, Nepean,K2G 4V3",-75.73479724,45.354375840000003
202,Ottawa,3059,K2B 7K4,Carling Avenue,South Asian Supermarket,Mon-Thu: 10:30-20:00;Fri: 10:00-21:00;Sun: 10:00-20:00,-3661,Independent and specialty stores,Not available,100,0,901,Bayshore - Belltown,9313,"3059 Carling Avenue, Ottawa,K2B 7K4",-75.80727037,45.354519840000002
445,Kanata,1102,K2K 1X7,Klondike Road,Shoppers Drug Mart,Mon-Sun: 08:00-24:00,-7214,Drugstores,https://www.shoppersdrugmart.ca/en/store-locator/store/1324,103,0,907,Brookside - Briarbrook - Morgan's Grant,14940,"1102 Klondike Road, Kanata,K2K 1X7",-75.93267961,45.354521230000003
201,Ottawa,3059,K2B 7K4,Carling Avenue,Uncle Ali's Super Market,Mon-Sat:08:00-21:00;Sun: 10:00-20:00,-2532,Independent and specialty stores,https://unclealihalalmeat.wordpress.com/,100,0,901,Bayshore - Belltown,9313,"3059 Carling Avenue, Ottawa,K2B 7K4",-75.80734017,45.354623439999997
164,Ottawa,2210,K1V 1J5,Bank Street,Walmart Supercentre,Mon-Sun 07:00-22:00,-2043,Mass merchandisers / club stores,https://www.walmart.ca/en/stores-near-me/s-ottawa-on-3131,43,1,97,South Keys - Greenboro West,4221,"2210 Bank Street, Ottawa,K1V 1J5",-75.65479712,45.354766450000000
67,Ottawa,1827,K2C 0C1,Baseline Road,Circle K,Mon-Sun: 24/7,-5562,Convenience stores and gas stations,https://www.circlek.com/store-locator/CA/ottawa/1827-baseline-rd/0868065,9,1,11,Braemar Park - Bel Air Heights - Copeland Park,6727,"1827 Baseline Road, Ottawa,K2C 0C1",-75.75594985,45.354839040000002
295,Ottawa,62,K2B 6M4,Wylie Avenue,Vaishali Superstore,Mon-Sun: 10:00-18:30,-1651,Independent and specialty stores,https://www.facebook.com/vaishalisottawa/,100,0,901,Bayshore - Belltown,9313,"62 Wylie Avenue, Ottawa,K2B 6M4",-75.80698387,45.354839439999999
442,Ottawa,3080,K2B 7K2,Carling Avenue,Shoppers Drug Mart,Mon-Sun: 08:00-22:00,-6782,Drugstores,https://www.shoppersdrugmart.ca/en/store-locator/store/1387,100,0,901,Bayshore - Belltown,9313,"3080 Carling Avenue, Ottawa,K2B 7K2",-75.80449067,45.354855239999999
303,Ottawa,2515,K1V 8R9,Bank Street,Metro,Mon-Sun: 08:00-22:00,-8753,Supermarkets and traditional formats,https://www.metro.ca/en/find-a-grocery/272,43,1,97,South Keys - Greenboro West,4221,"2515 Bank Street, Ottawa,K1V 8R9",-75.64423291,45.354877750000000
41,Ottawa,1543,K2G 3J4,Merivale Road,Ultramar,Mon-Sat:  06:00-22:00;Sun 07:00-22:00,-3537,Convenience stores and gas stations,https://www.ultramar.ca/?utm_source=G&utm_medium=lpm&utm_campaign=parkland,19,0,950,Skyline - Fisher Heights,4373,"1543 Merivale Road, Ottawa,K2G 3J4",-75.73541754,45.354988040000002
203,Ottawa,3033,K2B 7K3,Carling Avenue,Damas Supermarket,Mon-Sat: 09:00-21:00,-3130,Independent and specialty stores,http://damassupermarket.com/,100,0,901,Bayshore - Belltown,9313,"3033 Carling Avenue, Ottawa,K2B 7K3",-75.80631617,45.355016440000000
458,Ottawa,2515,K1V 8R9,Bank Street,Shoppers Drug Mart,Mon-Sun: 08:00-24:00,-11134,Drugstores,https://www.shoppersdrugmart.ca/en/store-locator/store/635,43,1,97,South Keys - Greenboro West,4221,"2515 Bank Street, Ottawa,K1V 8R9",-75.64470182,45.355093549999999
60,Ottawa,2924,K2B 7J7,Carling Avenue,Manila Mart,Mon-Sun: 09:300-20:00,16134228333,Independent and specialty stores,Not Available,48,1,106,Whitehaven - Queensway Terrace North,11614,"2924 Carling Avenue, Ottawa,K2B 7J7",-75.80125487,45.356459340000001
358,Ottawa,2910,K2B 7J7,Carling Avenue,Grab N' Eat Grocers,Sun-Mon:10:00-18:00;Tues-Sat:10:00-19:00,16134218810,Convenience stores and gas stations,Not Available,48,1,106,Whitehaven - Queensway Terrace North,11614,"2910 Carling Avenue, Ottawa,K2B 7J7",-75.80065067,45.356681539999997
270,Nepean,1529,K2G 3J3,Merivale Road,Hungry Ninja,Mon: 11:00-18:00;Tues-Sun:11:00-22:00,16132904921,Convenience stores and gas stations,https://hungry-ninja.ca/,19,0,950,Skyline - Fisher Heights,4373,"1529 Merivale Road, Nepean,K2G 3J3",-75.73633555,45.356796940000002
269,Nepean,1508,K2G 3J6,Merivale Road,OK Mart,Mon-fri:09:30-20:0;Sat: 09:30-18:00;Sun 10:00-18:00,16132281181,Convenience stores and gas stations,https://www.okmart.ca/,21,1,31,Cityview - Crestview - Meadowlands,8545,"1508 Merivale Road, Nepean,K2G 3J6",-75.73810305,45.357256040000003
184,Ottawa,2210,K1V 1J5,Bank Street,Loblaws,Mon-Sun: 07:00-22:00,-2722,Supermarkets and traditional formats,https://www.loblaws.ca/store-locator/details/1188,43,1,97,South Keys - Greenboro West,4221,"2210 Bank Street, Ottawa,K1V 1J5",-75.65669682,45.357447550000003
394,Kanata,840,K2W 0C9,March Road,Sobeys,Mon-Sun: 07:00-22:00,-10176,Supermarkets and traditional formats,https://www.sobeys.com/stores/sobeys-march-road/,103,0,907,Brookside - Briarbrook - Morgan's Grant,14940,"840 March Road, Kanata,K2W 0C9",-75.93384461,45.357863829999999
183,Ottawa,2210,K1V 1J5,Bank Street,Bulk Barn,Mon-Fri: 09:30-20:30; Sat:09:30-20:00;Sun:10:00-18:00,-9477,Independent and specialty stores,https://www.bulkbarn.ca/home-en/index_deals.html,43,1,97,South Keys - Greenboro West,4221,"2210 Bank Street, Ottawa,K1V 1J5",-75.65771182,45.359299450000002
197,Nepean,1383,K2G 3H7,Clyde Avenue,M&J Tropical,Mon-Wed:09:00-19:00;Thu-Fri:09:00-20:00;Sat: 09:00-20:00;Sun:12:00-17:00,16132243204,Independent and specialty stores,http://m-j-tropical.poi.place/,19,0,950,Skyline - Fisher Heights,4373,"1383 Clyde Avenue, Nepean,K2G 3H7",-75.73783065,45.359834839999998
258,Nepean,1465,K2E 5N9,Merivale Road,Bulk Barn,Mon-Fri: 09:30-18:30;Sat 09:30-20:00; Sun10:00-17:00,-7999,Independent and specialty stores,https://www.bulkbarn.ca/home-en/index_deals.html,19,0,950,Skyline - Fisher Heights,4373,"1465 Merivale Road, Nepean,K2E 5N9",-75.73333344,45.360147840000003
24,Ottawa,1465,K2E 1B1,Merivale Road,Food Basics,Mon-Fri:08:00-21:00;Sat-Sun:08:00-20:00,-2380,Supermarkets and traditional formats,http://www.foodbasics.ca/,19,0,950,Skyline - Fisher Heights,4373,"1465 Merivale Road, Ottawa,K2E 1B1",-75.73295694,45.360440840000003
438,Ottawa,1469,K2E 5N9,Merivale Road,Shoppers Drug Mart,Mon-Sun: 08:00-24:00,-8106,Drugstores,https://www.shoppersdrugmart.ca/en/store-locator/store/627,19,0,950,Skyline - Fisher Heights,4373,"1469 Merivale Road, Ottawa,K2E 5N9",-75.73443254,45.360562139999999
161,Ottawa,1661,K1T 3Z3,Hunt Club Road,MacEwen Hunt Club,Mon-Sun: 24/7,-10020,Convenience stores and gas stations,http://macewen.ca/,24,1,45,Greenboro East,10722,"1661 Hunt Club Road, Ottawa,K1T 3Z3",-75.63137981,45.360592349999997
81,Ottawa,1432,"K2C 0A9
",Baseline Road,Petro-Canada,Mon-Sun:24/7,-2057,Convenience stores and gas stations,https://www.petro-canada.ca/en/personal/gas-station-locations/1432-baseline-road-nepean?utm_source=G&utm_medium=lpm&utm_campaign=suncor,19,0,950,Skyline - Fisher Heights,4373,"1432 Baseline Road, Ottawa,K2C 0A9
",-75.73900895,45.361257440000003
11,Nepean,1460,K2E 5P2,Merivale Road,Loblaws,Mon-Sun: 07:00-21:00,-6839,Supermarkets and traditional formats,https://www.loblaws.ca/store-locator/details/1082,19,0,950,Skyline - Fisher Heights,4373,"1460 Merivale Road, Nepean,K2E 5P2",-75.73542985,45.361923640000001
79,Ottawa,1366,K2C 3Z4,Clyde Avenue,Quickie,Mon-Sat: 07:00- 23:00;Sun: 08:00-23:00,-2400,Convenience stores and gas stations,https://www.quickiestores.com/,20,1,28,Civic Hospital-Central Park,10980,"1366 Clyde Avenue, Ottawa,K2C 3Z4",-75.74083435,45.362193240000003
475,Ottawa,1460,K2B 6S1,Richmond Road,Shoppers Drug Mart,Mon-Sun: 09:00-22:00,-1717,Drugstores,https://www.shoppersdrugmart.ca/en/store-locator/store/642,70,0,906,Britannia Village,6543,"1460 Richmond Road, Ottawa,K2B 6S1",-75.78972996,45.362769640000003
392,Nepean,1119,K2E 6J5,Meadowlands Drive East,Sunmax Supermarket,Mon-Fri: 08:30-22:00; Sat-Sun: 09:00-21:00,-9704,Convenience stores and gas stations,Not available,106,0,941,Parkwood Hills - Stewart Farm,5234,"1119 Meadowlands Drive East, Nepean,K2E 6J5",-75.71221374,45.362853840000000
8,Ottawa,1493,K2B 6R9,Richmond Road,Farm Boy,Mon-Fri: 08:00-21:00;Sat-Sun: 08:00-20:00,-4182,Supermarkets and traditional formats,https://www.farmboy.ca/stores/britannia/,70,0,906,Britannia Village,6543,"1493 Richmond Road, Ottawa,K2B 6R9",-75.79155226,45.362946639999997
335,Ottawa,361,K2B 5V2,Poulin Ave,Quickie,Mon-Fri: 06:00- 23:00;Sat-Sun: 07:00-23:00,-6514,Convenience stores and gas stations,https://www.quickiestores.com/,70,0,906,Britannia Village,6543,"361 Poulin Ave, Ottawa,K2B 5V2",-75.79167996,45.363007940000003
35,Ottawa,1375,K2C 3G1,Baseline Road,Walmart Supercentre,Mon-Sun 07:00-22:00,-3500,Mass merchandisers / club stores,https://www.walmart.ca/en/stores-near-me/ottawa-sw-on-1110,20,1,28,Civic Hospital-Central Park,10980,"1375 Baseline Road, Ottawa,K2C 3G1",-75.73861745,45.363837040000000
310,Ottawa,2100,"K1T 3S4
",Hunt Club Road,Circle K,Mon-Sun: 24/7,-9708,Convenience stores and gas stations,https://www.circlek.com/ca/ontario/store-locator/CA/ottawa/2100-hunt-club-rd/0852527?utm_source=google&utm_medium=local&utm_campaign=google-local,24,1,45,Greenboro East,10722,"2100 Hunt Club Road, Ottawa,K1T 3S4
",-75.62017231,45.364080549999997
172,Ottawa,25,K1T 2 J7,Tapiola Crescent,Super Convenience Mart,"Mon-Fri: 08:00-22:00;Sat: 09:00-22:00,Sun: 09:30-21:30",-2942,Convenience stores and gas stations,Not available,43,1,97,South Keys - Greenboro West,4221,"25 Tapiola Crescent, Ottawa,K1T 2 J7",-75.64680432,45.364195950000003
492,Ottawa,2529,K2B 7H6,Carling Ave,Rexall,Mon-Sat 09:00-21:00;Sun: 09:00-21:00,-6052,Drugstores,https://www.rexall.ca/storelocator/store/1362,70,0,906,Britannia Village,6543,"2529 Carling Ave, Ottawa,K2B 7H6",-75.78480325,45.364297749999999
26,Ottawa,1386,K2B 8L4,Richmond Road,Quickie,Mon-Sun: 24/7,-1636,Convenience stores and gas stations,https://www.quickiestores.com/,70,0,906,Britannia Village,6543,"1386 Richmond Road, Ottawa,K2B 8L4",-75.78778486,45.365107039999998
324,Ottawa,2525,K2B 7Z2,Carling Avenue,Metro,Mon-Sun: 08:00-22:00,+1 613-828-3251,Supermarkets and traditional formats,https://www.metro.ca/en/find-a-grocery/274,70,0,906,Britannia Village,6543,"2525 Carling Avenue, Ottawa,K2B 7Z2",-75.78570916,45.365315039999999
262,Ottawa,888,K2C 3R2,Meadowlands Drive,Food Village,"Mon-Thu:,Sat 09:00-20:00;Fri:10:00-20:00; Sun:09:00-18:00",16132281026,Convenience stores and gas stations,Not Available,11,1,16,Carleton Heights - Rideauview,6852,"888 Meadowlands Drive, Ottawa,K2C 3R2",-75.70232754,45.366933150000001
276,Ottawa,2361,K2B 7G7,Carling Avenue,Hasty Market,Mon-Sun: 09:00-13:00,13439963179,Convenience stores and gas stations,http://hastymarketcorp.com/,14,0,910,Carlingwood West - Glabar Park - McKellar Heights,8773,"2361 Carling Avenue, Ottawa,K2B 7G7",-75.77906836,45.367200339999997
457,Ottawa,888,K2C 3R2,Meadowlands Drive,Shoppers Drug Mart,Mon-Sun: 08:00-24:00,-7041,Drugstores,https://www.shoppersdrugmart.ca/en/store-locator/store/626,11,1,16,Carleton Heights - Rideauview,6852,"888 Meadowlands Drive, Ottawa,K2C 3R2",-75.70156484,45.367234750000001
288,Ottawa,2238,K2B 7G1,Carling Avenue,Shell Select,Mon-Sun: 24/7,-5094,Convenience stores and gas stations,https://find.shell.com/ca/fuel/10052991-carling-ave-woodroffe,48,1,106,Whitehaven - Queensway Terrace North,11614,"2238 Carling Avenue, Ottawa,K2B 7G1",-75.77325766,45.368415140000003
36,Ottawa,1440,K2C 1N6,Prince Of Wales Drive,Shell Select,Mon-Sun: 24/7,-7046,Convenience stores and gas stations,https://find.shell.com/ca/fuel/10053378-prince-wales-meadowlands,11,1,16,Carleton Heights - Rideauview,6852,"1440 Prince Of Wales Drive, Ottawa,K2C 1N6",-75.70175913,45.368495850000002
252,Ottawa,1430,K2C 1N4,Prince Of Wales Drive,Farmer's Pick,Mon-Fri: 08:30-18:00;Sat:08:00-17:00;Sun: 08:30-17:00,16132251240,Independent and specialty stores,http://www.farmerspick.ca/,11,1,16,Carleton Heights - Rideauview,6852,"1430 Prince Of Wales Drive, Ottawa,K2C 1N4",-75.70329274,45.368741640000003
68,Carlsbad Springs,6500,K0A 1K0,Russell Road,Carlsbad Variety,Mon-Sat: 05:30- 21:30;Sun 06:00- 21:00,-1592,Convenience stores and gas stations,Not available,94,0,918,Edwards - Carlsbad Springs,3461,"6500 Russell Road, Carlsbad Springs,K0A 1K0",-75.45569025,45.368972249999999
377,Ottawa,4,K1V 7Y6,Lorry Greenberg Drive,Alameh,Mon-Sat: 09:00-20:00;Sun: 09:00-19:00,-2834,Independent and specialty stores,https://ameer-grocery-and-meat-shop.business.site/?m=true,54,1,50,Hunt Club Park,8566,"4 Lorry Greenberg Drive, Ottawa,K1V 7Y6",-75.62095711,45.369127349999999
332,Ottawa,4,K1G 5H6,Lorry Greenberg Drive,Quickie,Mon-Fri: 06:00- 23:00;Sat:07:00-23:00;Sun:07:00-22:30,-9844,Convenience stores and gas stations,https://www.quickiestores.com/,54,1,50,Hunt Club Park,8566,"4 Lorry Greenberg Drive, Ottawa,K1G 5H6",-75.62089241,45.369165850000002
248,Ottawa,2249,K2B 7E9,Carling Avenue,Morrocan Market Centre,Mon-Sat:10:00-20:00;Sun: 10:00-17:00,16135960000,Independent and specialty stores,Not Available,14,0,910,Carlingwood West - Glabar Park - McKellar Heights,8773,"2249 Carling Avenue, Ottawa,K2B 7E9",-75.77423206,45.369216539999996
259,Ottawa,2148,K2A 1H1,Carling Avenue,Bulk Barn,Mon-Sun: 09:00-21:00;Sun: 10:00-18:00,-8272,Independent and specialty stores,https://www.bulkbarn.ca/home-en/index_deals.html,14,0,910,Carlingwood West - Glabar Park - McKellar Heights,8773,"2148 Carling Avenue, Ottawa,K2A 1H1",-75.76879356,45.369297039999999
447,Ottawa,2148,K2A 1H1,Carling Avenue,Shoppers Drug Mart,Mon-Sun: 09:00-22:00,-11327,Drugstores,https://www.shoppersdrugmart.ca/en/store-locator/store/622,14,0,910,Carlingwood West - Glabar Park - McKellar Heights,8773,"2148 Carling Avenue, Ottawa,K2A 1H1",-75.76832086,45.369613840000000
441,Ottawa,1180,K1V 2M5,Walkley Road,Shoppers Drug Mart,Mon-Sun: 08:00-22:00,-4693,Drugstores,https://www.shoppersdrugmart.ca/en/store-locator/store/620,62,0,927,Hunt Club Woods - Quintarra - Revelstoke,5953,"1180 Walkley Road, Ottawa,K1V 2M5",-75.66362312,45.369800650000002
297,Ottawa,1838,K1V 7Y6,Bank Street,Savannah Afro Caribbean Products,"Mon: 10:00-18:00;Tues,Wed:09:30-18:00;Thu: 09:30-19:00;Fri: 09:00-21:00;Sat:09:00-19:00;Sun: 11:00-18:00",16137317878,Independent and specialty stores,Not Available,6,0,903,Billings Bridge - Alta Vista,12653,"1838 Bank Street, Ottawa,K1V 7Y6",-75.66465442,45.370393550000003
272,Ottawa,2681,K1V 7T5,Alta Vista Drive,Your Independent Grocer,Mon-Sun: 08:00-21:00,-3656,Supermarkets and traditional formats,https://www.yourindependentgrocer.ca/store-locator/details/0450,32,0,932,Ledbury - Heron Gate - Ridgemont,13903,"2681 Alta Vista Drive, Ottawa,K1V 7T5",-75.66302822,45.372271249999997
22,Ottawa,2085,K2A 1H2,Carling Avenue,Loblaws,Mon-Sun: 07:00-21:00,-4561,Supermarkets and traditional formats,https://www.loblaws.ca/store-locator/details/1132,13,0,931,Laurentian,9654,"2085 Carling Avenue, Ottawa,K2A 1H2",-75.76781606,45.372436039999997
40,Ottawa,1435,K1Z 8L3,Caldwell Avenue,Quickie,Mon-Fri: 06:00- 23:00;Sat-Sun: 07:00-23:00,-10253,Convenience stores and gas stations,https://www.quickiestores.com/,12,1,18,Carlington,10099,"1435 Caldwell Avenue, Ottawa,K1Z 8L3",-75.73489895,45.372830450000002
216,Ottawa,2925,K1V 9A8,Albion Road North,Alta Juba Supermarket,Mon-Sat: 08:30-20:00,-11241,Convenience stores and gas stations,Not avaliable,32,0,932,Ledbury - Heron Gate - Ridgemont,13903,"2925 Albion Road North, Ottawa,K1V 9A8",-75.65368972,45.373324050000001
493,Ottawa,2121,K2A 1H2,Carling Ave,Rexall,Mon-Fri: 08:00-21:00; Sat: 09:00-16:00;Sun09:00-17:00,-5922,Drugstores,https://www.rexall.ca/storelocator/store/1487,13,0,931,Laurentian,9654,"2121 Carling Ave, Ottawa,K2A 1H2",-75.76904995,45.373364250000002
333,Ottawa,1420,K1V 6P5,Walkley Road,Circle K,Mon-Sun: 24/7,-10345,Convenience stores and gas stations,https://www.circlek.com/ca/ontario/store-locator/CA/ottawa/1420-walkley-road/0800487?utm_source=google&utm_medium=local&utm_campaign=google-local,32,0,932,Ledbury - Heron Gate - Ridgemont,13903,"1420 Walkley Road, Ottawa,K1V 6P5",-75.65360322,45.373569949999997
233,Ottawa,1753,K1V 7Z4,Bank Street,New Middleast Market,Mon-Sat: 09:00-22:00;Sun: 09:00-19:00,16135263423,Convenience stores and gas stations,Not Available,6,0,903,Billings Bridge - Alta Vista,12653,"1753 Bank Street, Ottawa,K1V 7Z4",-75.66447652,45.373706149999997
242,Ramsayville,3500,K0A 2Y0,Hawthorne Road,Easyday Convenience,Mon-Sun: 06:00-22:30,Not Available,Convenience stores and gas stations,Not Available,54,1,50,Hunt Club Park,8566,"3500 Hawthorne Road, Ramsayville,K0A 2Y0",-75.5981437,45.374409749999998
305,Ottawa,3467,K1G 4G2,Hawthorne Road,Ultramar,Mon-Sun: 24/7,-9422,Convenience stores and gas stations,https://www.ontherunstores.com/?utm_source=G&utm_medium=lpm&utm_campaign=parkland,55,0,917,East Industrial,2084,"3467 Hawthorne Road, Ottawa,K1G 4G2",-75.5969486,45.374791049999999
330,Ottawa,1859,K2A 1E4,Carling Avenue,Circle K,Mon-Sun: 24/7,-4574,Convenience stores and gas stations,https://www.circlek.com/ca/ontario/store-locator/CA/ottawa/1859-carling-ave/0852428?utm_source=google&utm_medium=local&utm_campaign=google-local,13,0,931,Laurentian,9654,"1859 Carling Avenue, Ottawa,K2A 1E4",-75.75738355,45.376459040000000
173,Ottawa,1620,K1V 6P5,Walkley Road,Geeland International Grocery,Mon-Sat: 09:00-21:00;Sun: 10:00-19:00,16136804282,Independent and specialty stores,https://geeland-international-grocery.business.site/?utm_source=googlemybusiness&utm_medium=referral,32,0,932,Ledbury - Heron Gate - Ridgemont,13903,"1620 Walkley Road, Ottawa,K1V 6P5",-75.64502532,45.377378049999997
76,Ottawa,1600,K1V 7Y6,Bank Street,Circle K,Mon-Sun: 24/7,-2793,Convenience stores and gas stations,https://www.circlek.com/ca/ontario/store-locator/CA/ottawa/1600-bank-st/0852384?utm_source=google&utm_medium=local&utm_campaign=google-local,6,0,903,Billings Bridge - Alta Vista,12653,"1600 Bank Street, Ottawa,K1V 7Y6",-75.66742053,45.377502350000000
496,Ottawa,1725,K1V 2P6,Walkley Road,Rexall,Mon-Sun: 08:00-22:00,-11175,Drugstores,https://www.rexall.ca/storelocator/store/2014,32,0,932,Ledbury - Heron Gate - Ridgemont,13903,"1725 Walkley Road, Ottawa,K1V 2P6",-75.64619814,45.377751269999997
348,Ottawa,1176,K1V 6B2.,Heron Road,Canadian Tire Gas+,Mo-Fr 06:00-23:00; Sa 07:00-23:00; Su 08:00-22:00,-4022,Convenience stores and gas stations,http://gasplus.canadiantire.ca/,6,0,903,Billings Bridge - Alta Vista,12653,"1176 Heron Road, Ottawa,K1V 6B2.",-75.66911383,45.377992949999999
331,Ottawa,1025,K1Z 6A6,Merivale Road,Circle K,Mon-Sun: 24/7,-7815,Convenience stores and gas stations,https://www.circlek.com/ca/ontario/store-locator/CA/ottawa/1025-merivale-rd/0868048?utm_source=google&utm_medium=local&utm_campaign=google-local,12,1,18,Carlington,10099,"1025 Merivale Road, Ottawa,K1Z 6A6",-75.73287995,45.379014150000003
462,Ottawa,1582,K1H 7Z5,Bank Street,Shoppers Drug Mart,Mon-Sun: 08:00-22:00,-10151,Drugstores,https://www.shoppersdrugmart.ca/en/store-locator/store/1527,6,0,903,Billings Bridge - Alta Vista,12653,"1582 Bank Street, Ottawa,K1H 7Z5",-75.66889213,45.379276750000002
7,Ottawa,1670,K1V 0C2,Heron Road,Food Basics,Mon-Fri:08:00-21:00;Sat-Sun:08:00-20:00,+1(613) 731-0066,Supermarkets and traditional formats,http://www.foodbasics.ca/,32,0,932,Ledbury - Heron Gate - Ridgemont,13903,"1670 Heron Road, Ottawa,K1V 0C2",-75.64321372,45.379367150000000
185,Ottawa,1780,K1V 6A1,Heron Road,Quickie,Mon-Sun: 24/7,-10357,Convenience stores and gas stations,https://www.quickiestores.com/,32,0,932,Ledbury - Heron Gate - Ridgemont,13903,"1780 Heron Road, Ottawa,K1V 6A1",-75.63998101,45.380202850000003
33,Ottawa,1224,K1Z 7Z4,Shillington Avenue,King Confectionary,Mon-Sun: 08:30-22:00,16137226710,Convenience stores and gas stations,Not Available,12,1,18,Carlington,10099,"1224 Shillington Avenue, Ottawa,K1Z 7Z4",-75.72833624,45.380581550000002
63,Ottawa,1607,K2A 1C4,Carling Avenue,Shell Select,Mon-Sun: 24/7,-7218,Convenience stores and gas stations,https://find.shell.com/ca/fuel/10053146-carling-ave-churchill,47,0,958,Westboro,10558,"1607 Carling Avenue, Ottawa,K2A 1C4",-75.74749675,45.380699139999997
145,Ottawa,962,K1Z 6A2,Merivale Road,Shell Select,Mon-Sun: 24/7,-4575,Convenience stores and gas stations,https://find.shell.com/ca/fuel/10052899-merivale-rd-woodward,12,1,18,Carlington,10099,"962 Merivale Road, Ottawa,K1Z 6A2",-75.73362335,45.381083550000000
271,Ottawa,1500,K1H 7Z1,Bank Street,Farm Boy,Mon-Fri: 08:00-21:00;Sat-Sun: 08:00-20:00,-8550,Supermarkets and traditional formats,https://www.farmboy.ca/stores/blue-heron/,6,0,903,Billings Bridge - Alta Vista,12653,"1500 Bank Street, Ottawa,K1H 7Z1",-75.67026853,45.381419950000002
296,Ottawa,1499,K1H 8E8,Clémentine Boulevard,A&M Confectionary,Mon-Sun: 09:00-21:00,-10347,Convenience stores and gas stations,Not available,6,0,903,Billings Bridge - Alta Vista,12653,"1499 Clémentine Boulevard, Ottawa,K1H 8E8",-75.67389963,45.382816050000002
169,Ottawa,1970,K1H 1W1,Walkley Road,Circle K,Mon-Sun: 24/7,-10223,Convenience stores and gas stations,https://www.circlek.com/ca/ontario/store-locator/CA/ottawa/1970-walkley-rd/0852723?utm_source=google&utm_medium=local&utm_campaign=google-local,43,1,97,South Keys - Greenboro West,4221,"1970 Walkley Road, Ottawa,K1H 1W1",-75.63071741,45.382971650000002
103,Ottawa,3199,K1G 3V8,Hawthorne Road,Ultramar,Mon-Sun: 24/7,-10179,Convenience stores and gas stations,https://www.ultramar.ca/?utm_source=G&utm_medium=lpm&utm_campaign=parkland,55,0,917,East Industrial,2084,"3199 Hawthorne Road, Ottawa,K1G 3V8",-75.6014958,45.383036050000001
116,Ottawa,1794,K2K 1X7,Dunrobin Road,MacEwan,Mon-Fri: 05:30-23:00;Sat: 06:00-23:00;Sun 07:00-22:00,-3255,Convenience stores and gas stations,https://macewen.ca/,98,1,35,Dunrobin,5569,"1794 Dunrobin Road, Ottawa,K2K 1X7",-75.96937402,45.383241439999999
497,Ottawa,2269,K1H 8K2,Riverside Dr,Rexall,Mon-Fri: 09:00-21:00; Sat:09:00-16:00;Sun:10:00-17:00,-3632,Drugstores,https://www.rexall.ca/storelocator/store/1479?utm_source=G&utm_medium=LPM&utm_campaign=RexallPharmaPlus,6,0,903,Billings Bridge - Alta Vista,12653,"2269 Riverside Dr, Ottawa,K1H 8K2",-75.67854091,45.385074969999998
291,Ottawa,2277,K1H 7X6,Riverside Drive,Walmart Supercentre,Mon-Sun 07:00-22:00,-6021,Mass merchandisers / club stores,https://www.walmart.ca/en/stores-near-me/ottawa-c-1200,6,0,903,Billings Bridge - Alta Vista,12653,"2277 Riverside Drive, Ottawa,K1H 7X6",-75.67945083,45.385193549999997
21,Ottawa,848,K1Z 5Z4,Merivale Road,MF Foodmart,Mon-Sat: 09:00-20:00;Sun: 10:00-18:00,+1(613) 722-8528,Independent and specialty stores,http://www.mffoodmart.com/,12,1,18,Carlington,10099,"848 Merivale Road, Ottawa,K1Z 5Z4",-75.73267085,45.385270550000001
20,Ottawa,848,K1Z 5Z4,Merivale Road,La Tiendita,"Mon,Fri.Sat,Sun:12:00-19:00;Wed,Thu: 12:00-19:00;Tues:Closed",16137247762,Independent and specialty stores,http://latinproductsottawa.ca/,12,1,18,Carlington,10099,"848 Merivale Road, Ottawa,K1Z 5Z4",-75.73262795,45.385377550000001
293,Ottawa,2241,K1H 7X5,Riverside Drive,Your Independent Grocer,Mon-Sun: 08:00-20:00;Sat: 08:00-19:00;Sun 09:00-19:00,-2937,Supermarkets and traditional formats,https://www.yourindependentgrocer.ca/store-locator/details/1619,6,0,903,Billings Bridge - Alta Vista,12653,"2241 Riverside Drive, Ottawa,K1H 7X5",-75.67644813,45.385865549999998
484,Ottawa,1415,K1Z 7L6,Carling Avenue,Rexall,Mon-Fri: 09:00-19:00; Sat: 09:00-18:00; Sun: 10:00-17;00,-1716,Drugstores,https://www.rexall.ca/storelocator/store/2006,47,0,958,Westboro,10558,"1415 Carling Avenue, Ottawa,K1Z 7L6",-75.74044765,45.386108249999999
474,Ottawa,1309,K1Z 7L3,Carling Avenue,Shoppers Drug Mart,Mon-Sun: 24/7,-5611,Drugstores,https://www.shoppersdrugmart.ca/en/store-locator/store/628,20,1,28,Civic Hospital-Central Park,10980,"1309 Carling Avenue, Ottawa,K1Z 7L3",-75.73518875,45.386250050000001
19,Ottawa,667,K1Z 7L6,Kirkwood Avenue,Food Basics,Mon-Fri:08:00-21:00;Sat-Sun:08:00-20:00,+1(613) 722-7412,Supermarkets and traditional formats,http://www.foodbasics.ca/,47,0,958,Westboro,10558,"667 Kirkwood Avenue, Ottawa,K1Z 7L6",-75.73887265,45.386396650000002
292,Ottawa,2269,"K1H 1A1
",Riverside Drive,Bulk Barn,Mon-Fri: 09:30-20:30;Sat: 09:30-18:00; Sun: 10:00-17:00,-4223,Independent and specialty stores,https://www.bulkbarn.ca/home-en/index_deals.html,6,0,903,Billings Bridge - Alta Vista,12653,"2269 Riverside Drive, Ottawa,K1H 1A1
",-75.67551743,45.386719050000004
432,Ottawa,1793,K1H 6N2,Kilborn Avenue,Cedars & Co Food Market,Mon-Sun: 09:00-20:00,-7560,Independent and specialty stores,Not available,37,1,87,Playfair Park - Lynda Park - Guildwood Estates,5945,"1793 Kilborn Avenue, Ottawa,K1H 6N2",-75.64518552,45.388054750000002
198,Ottawa,2201,K1H 8K9,Riverside Drive,Bambeeno's Tuckshop,Mon- Fri: 09:30-20:30; Sat: 11:00-19:00;Sun: 13:00-19:00,+1-(613) 523-0606,Convenience stores and gas stations,Not available,6,0,903,Billings Bridge - Alta Vista,12653,"2201 Riverside Drive, Ottawa,K1H 8K9",-75.67464983,45.388321849999997
84,Ottawa,2232,K1G 1B2,St-Laurent Boulevard,Shell Select,Mon-Fri: 06:00-23:00; Sat-Sun: 07:00- 22:00,-2925,Convenience stores and gas stations,https://find.shell.com/ca/fuel/10052752-st-laurent-blvd-walkley,56,0,919,Elmvale - Canterbury,11540,"2232 St-Laurent Boulevard, Ottawa,K1G 1B2",-75.61841681,45.389061050000002
339,Ottawa,557,K1Z 5X3,Kirkwood Avenue,Al Kalaa ha lal meat,Mon-Sat: 09:00-20:00;Sun: 09:00-20:00,-5161,Independent and specialty stores,Not available,47,0,958,Westboro,10558,"557 Kirkwood Avenue, Ottawa,K1Z 5X3",-75.74289525,45.389166449999998
15,Ottawa,2261,K1G 3G8,Walkley Road,Metro,Mon-Fri: 08:00-22:00; Sat-Sun: 08:00-21:00,-7132,Supermarkets and traditional formats,https://www.metro.ca/en/find-a-grocery/283,56,0,919,Elmvale - Canterbury,11540,"2261 Walkley Road, Ottawa,K1G 3G8",-75.61928021,45.389474550000003
187,Ottawa,2213,K1G 2H5,Arch Street,Circle K,Mon-Sun: 24/7,-2195,Convenience stores and gas stations,https://www.circlek.com/ca/ontario/store-locator/CA/ottawa/2213-arch-st/0801389?utm_source=google&utm_medium=local&utm_campaign=google-local,56,0,919,Elmvale - Canterbury,11540,"2213 Arch Street, Ottawa,K1G 2H5",-75.63035051,45.389538649999999
477,Ottawa,410,K2A 4C4,Richmond Road,Shoppers Drug Mart,Mon-Sun: 08:00-22:00,-6948,Drugstores,https://www.shoppersdrugmart.ca/en/store-locator/store/1396,13,0,931,Laurentian,9654,"410 Richmond Road, Ottawa,K2A 4C4",-75.75700886,45.390360049999998
82,Ottawa,1255,K1S 3Y2,Bank Street,Cedars & Co. Food Market,Mon-Sun: 09:00-21:00,-3697,Independent and specialty stores,Not available,72,1,83,Old Ottawa South,6635,"1255 Bank Street, Ottawa,K1S 3Y2",-75.67986623,45.390999549999997
83,Ottawa,1166,"K1S 3X7
",Bank Street,Quickie,Mon-Sun:  06:00-24:00,-2455,Convenience stores and gas stations,https://www.quickiestores.com/,72,1,83,Old Ottawa South,6635,"1166 Bank Street, Ottawa,K1S 3X7
",-75.68255673,45.392435050000003
30,Ottawa,256,K1Z 6W9,Richmond Road,Circle K,Mon-Sun: 24/7,-2962,Convenience stores and gas stations,https://www.circlek.com/ca/ontario/store-locator/CA/ottawa/256-richmond-rd/0801279?utm_source=google&utm_medium=local&utm_campaign=google-local,47,0,958,Westboro,10558,"256 Richmond Road, Ottawa,K1Z 6W9",-75.75037575,45.393395949999999
443,Ottawa,1080,K1S 3X3,Bank Street,Shoppers Drug Mart,Mon-Sun: 08:00-22:00,-10675,Drugstores,https://www.shoppersdrugmart.ca/en/store-locator/store/1463,72,1,83,Old Ottawa South,6635,"1080 Bank Street, Ottawa,K1S 3X3",-75.68389533,45.394319050000000
18,Ottawa,190,K1Z 6W6,Richmond Road,Real Canadian Superstore,Mon-Sun 07:00-23:00,-7224,Supermarkets and traditional formats,https://www.realcanadiansuperstore.ca/store-locator/details/1009,47,0,958,Westboro,10558,"190 Richmond Road, Ottawa,K1Z 6W6",-75.74751785,45.394416049999997
86,Ottawa,1016,K1G 2A1,Pleasant Park Road,Ainee's Convenience Store,Mon-Sat: 09:00-21:00; Sun: 11:00-20:00,-9601,Convenience stores and gas stations,Not available,56,0,919,Elmvale - Canterbury,11540,"1016 Pleasant Park Road, Ottawa,K1G 2A1",-75.62240501,45.395192049999999
290,Ottawa,1034,K1G 2A1,Pleasant Park Road,Quickie,Mon-Sun: 24/7,-2330,Convenience stores and gas stations,https://www.quickiestores.com/,56,0,919,Elmvale - Canterbury,11540,"1034 Pleasant Park Road, Ottawa,K1G 2A1",-75.62162241,45.395355549999998
363,Ottawa,943,K1Y 4E3,Carling Ave,Divorsia Market,Mon:Closed;Tues: 11:00-18:00;Wed-Sat: 11:00-19:00;Sun:11:00-18:00,-5291,Independent and specialty stores,Not Available,46,0,957,West Centretown,9856,"943 Carling Ave, Ottawa,K1Y 4E3",-75.71354514,45.395456449999998
362,Ottawa,111,K1Y 3V1,Sherwood Drive,Sherwood Market & Deli,Mo-Fr 07:00-21:00; Sa 08:00-21:00; Su 09:00-21:00,16137296011,Convenience stores and gas stations,Not Available,46,0,957,West Centretown,9856,"111 Sherwood Drive, Ottawa,K1Y 3V1",-75.71342274,45.396126250000002
364,Ottawa,317,K1Z 8P4,McRae Avenue,Farm Boy,Mo-Su 08:00-21:00,-8634,Supermarkets and traditional formats,https://www.farmboy.ca/stores/westboro/,47,0,958,Westboro,10558,"317 McRae Avenue, Ottawa,K1Z 8P4",-75.74993165,45.396210150000002
182,Ottawa,1910, K1G 1A4,St-Laurent Boulevard,Your Independent Grocer,Mon-Sun 08:00-21:00,-2013,Supermarkets and traditional formats,https://www.yourindependentgrocer.ca/store-locator/details/4428,56,0,919,Elmvale - Canterbury,11540,"1910 St-Laurent Boulevard, Ottawa, K1G 1A4",-75.62415281,45.398125550000003
27,Ottawa,345,K1Y 0K3,Carleton Avenue,Metro,Mon-Fri: 08:00-22:00; Sat-Sun: 08:00-21:00,-4402,Supermarkets and traditional formats,https://www.metro.ca/en/find-a-grocery/275,30,1,55,Island Park - Wellington Village,5339,"345 Carleton Avenue, Ottawa,K1Y 0K3",-75.74051385,45.398402449999999
352,Ottawa,951,K1S 3W7,Bank Street,Whole Foods Market,Mon-Fri: 08:00-21:00,-8327,Independent and specialty stores,https://www.wholefoodsmarket.com/stores/lansdownepark?utm_source=google&utm_medium=organic&utm_campaign=listings,23,0,923,Glebe - Dows Lake,12193,"951 Bank Street, Ottawa,K1S 3W7",-75.68549043,45.399387849999997
365,Ottawa,1263,K1Y 3A6,Wellington Street West,Eksess Store,Mon-Fri: 07:00-19:00;Sat:09:15-16:00;Sun:closed,16137227778,Convenience stores and gas stations,https://www.eksess.ca/,30,1,55,Island Park - Wellington Village,5339,"1263 Wellington Street West, Ottawa,K1Y 3A6",-75.73354525,45.399507849999999
495,Ottawa,1910,K1G 1A4,St. Laurent Blvd.,Rexall,Mon-Sun: 08:00-22:00,-5919,Drugstores,https://www.rexall.ca/storelocator/store/414,56,0,919,Elmvale - Canterbury,11540,"1910 St. Laurent Blvd., Ottawa,K1G 1A4",-75.6249813,45.399764349999998
204,Ottawa,1990,K1G 4J6,Russell Road,Shafie Food Centre,Mon-Sun: 09:00-20:00,16135231980,Convenience stores and gas stations,http://shafiefoodcenter.ca/,56,0,919,Elmvale - Canterbury,11540,"1990 Russell Road, Ottawa,K1G 4J6",-75.62402991,45.400753850000001
31,Ottawa,390,K1Y 1G6,Parkdale Avenue,Neighbours Coffee,Mon-Fri:24/7,-2432,Convenience stores and gas stations,https://www.petro-canada.ca/en/personal/gas-station-locations/390-parkdale-ave-ottawa?utm_source=G&utm_medium=lpm&utm_campaign=suncor,26,1,47,Hintonburg - Mechanicsville,9368,"390 Parkdale Avenue, Ottawa,K1Y 1G6",-75.72963285,45.400915050000002
225,Ottawa,1785,K1G 3T7,Frobisher Lane,Bashayer Convenience,Mon-Sat: 09:30-19:00;Sun: 13:00-19:00,-3257,Convenience stores and gas stations,Not available,109,0,947,Riverview,6297,"1785 Frobisher Lane, Ottawa,K1G 3T7",-75.66549013,45.401244450000000
155,Ottawa,344,K1S 4K4,Bell Street South,Abbas Grocery,Mon-Fri: 07:00-22:00;Sat-Sun: 08:00-22:00,-8317,Convenience stores and gas stations,Not available,23,0,923,Glebe - Dows Lake,12193,"344 Bell Street South, Ottawa,K1S 4K4",-75.70337974,45.402083949999998
154,Ottawa,315,K1S 2A6,Powell Avenue,Hogan's Food Store,Mon-Sat 07:00-19:00; Sun: Closed,16132352082,Convenience stores and gas stations,Not Available,23,0,923,Glebe - Dows Lake,12193,"315 Powell Avenue, Ottawa,K1S 2A6",-75.70170574,45.402219449999997
337,Ottawa,1101,K1Y 2Y4,Wellington Street West,Aljazeera Food Market,Mo-Su 10:00-18:00,-7046,Independent and specialty stores,http://aljazeeraottawa.ca/,26,1,47,Hintonburg - Mechanicsville,9368,"1101 Wellington Street West, Ottawa,K1Y 2Y4",-75.72583835,45.402858049999999
478,Ottawa,778,K2S 3V6,Bank Street,Shoppers Drug Mart,Mon-Fri: 09:00-20:00;Sat: 09:00-18:00;Sun: 12:00-17:00,-9433,Drugstores,https://www.shoppersdrugmart.ca/en/store-locator/store/1539/?utm_source=G&utm_medium=lpm&utm_campaign=LPM_SDM,23,0,923,Glebe - Dows Lake,12193,"778 Bank Street, Ottawa,K2S 3V6",-75.68866363,45.403257150000002
482,Ottawa,1620,K1Y 4S7,Scott Street,Rexall,Mo-Fr 08:00-18:00; Sa 10:00-15:00,-11211,Drugstores,https://www.rexall.ca/storelocator/store/1495,26,1,47,Hintonburg - Mechanicsville,9368,"1620 Scott Street, Ottawa,K1Y 4S7",-75.73362635,45.403363149999997
279,Ottawa,754,K1S 3V6,Bank Street,Metro,Mon-Fri: 09:00-21:00; Sat-Sun 09:00-20:00,-10310,Supermarkets and traditional formats,https://www.metroglebe.com/,23,0,923,Glebe - Dows Lake,12193,"754 Bank Street, Ottawa,K1S 3V6",-75.68892063,45.403378349999997
156,Ottawa,655,K1S 4E7,Bronson Avenue,Quickie,Mon-Sun: 24/7,-2798,Convenience stores and gas stations,https://www.quickiestores.com/,23,0,923,Glebe - Dows Lake,12193,"655 Bronson Avenue, Ottawa,K1S 4E7",-75.70080184,45.403442050000002
157,Ottawa,41,K1S 2J7,Third Avenue,OConnor Confectionary,Mon-Fri:09:00-17:00;Sat:10:00-17:00;Sun:Closed,16132325540,Convenience stores and gas stations,Not Available,23,0,923,Glebe - Dows Lake,12193,"41 Third Avenue, Ottawa,K1S 2J7",-75.68479733,45.404668049999998
64,Ottawa,1023,K1Y 2Y1,Wellington Street West,Circle K,Mon-Sun: 24/7,-8831,Convenience stores and gas stations,https://www.circlek.com/ca/ontario/store-locator/CA/ottawa/1023-wellington-street/0800404?utm_source=google&utm_medium=local&utm_campaign=google-local,26,1,47,Hintonburg - Mechanicsville,9368,"1023 Wellington Street West, Ottawa,K1Y 2Y1",-75.72402884,45.404820749999999
440,Ottawa,700,K1S 3V2,Bank Street,Shoppers Drug Mart,Mon-Sun: 08:00-22:00,-4047,Drugstores,https://www.shoppersdrugmart.ca/en/store-locator/store/1258,23,0,923,Glebe - Dows Lake,12193,"700 Bank Street, Ottawa,K1S 3V2",-75.68975734,45.404842549999998
66,Ottawa,255,K1Y 1G1,Parkdale Avenue,Quickie,Mon-Fri: 06:00- 23:00;Sat-Sun: 07:00-23:00,-5045,Convenience stores and gas stations,https://www.quickiestores.com/,26,1,47,Hintonburg - Mechanicsville,9368,"255 Parkdale Avenue, Ottawa,K1Y 1G1",-75.73118695,45.404903449999999
368,Ottawa,1739,K1G 3S7,St-Laurent Boulevard,Afro-Caribbean Groceries,Mon-Sat: 09:30-18:00,-10107,Independent and specialty stores,Not available,55,0,917,East Industrial,2084,"1739 St-Laurent Boulevard, Ottawa,K1G 3S7",-75.62601341,45.405429450000000
211,Ottawa,258,K1R 7N1,Rochester Street,Roma Confectionary,Mon-Sun: 05:00-21:00,16132345001,Convenience stores and gas stations,Not Available,46,0,957,West Centretown,9856,"258 Rochester Street, Ottawa,K1R 7N1",-75.71036084,45.406015050000001
412,Ottawa,1711,K1G 3V4,St-Laurent Boulevard,Bienvenidos Latin Market,Mon-Sat: 10:00-19:00;Sun: 10:00-18:00,-8529,Independent and specialty stores,https://bienvenidos.ca/,55,0,917,East Industrial,2084,"1711 St-Laurent Boulevard, Ottawa,K1G 3V4",-75.62636711,45.406273960000000
95,Ottawa,163,K1R 7E1,Bell Street North,Quickie,Mon-Fri: 06:00- 23:00;Sat-Sun: 07:00-23:00,-5902,Convenience stores and gas stations,https://www.quickiestores.com/,46,0,957,West Centretown,9856,"163 Bell Street North, Ottawa,K1R 7E1",-75.70566284,45.406735050000002
382,Ottawa,60,K1Y 2M8,Lyndale Avenue,Lyndale Corner Food Mart,Mon-Sun: 08:00-22:00,-4113,Convenience stores and gas stations,https://lyndale-corner-food-mart.business.site/?utm_source=gmb&utm_medium=referral,26,1,47,Hintonburg - Mechanicsville,9368,"60 Lyndale Avenue, Ottawa,K1Y 2M8",-75.73086265,45.407170149999999
232,Ottawa,250,K1S 5V9,City Centre Avenue,Zero Waste grocery store,Mon: Closed:; Tues-Fri: 08:00-19:00;Sat-Sun: 10:00-17:00,-1523,Independent and specialty stores,http://nugrocery.com/,46,0,957,West Centretown,9856,"250 City Centre Avenue, Ottawa,K1S 5V9",-75.71871994,45.408112850000002
273,Ottawa,1565,K1G 0E9,Alta Vista Drive,Vista Min-a-Mart,Mon-Fri: 06:00-24:00;Sun: 07:00-24:00,-7118,Convenience stores and gas stations,Not available,109,0,947,Riverview,6297,"1565 Alta Vista Drive, Ottawa,K1G 0E9",-75.65731372,45.408605049999998
436,Ottawa,1559,K1G 0E9,Alta Vista Drive,Shoppers Drug Mart,Mon-Sun: 08:00-22:00,-2795,Drugstores,https://www.shoppersdrugmart.ca/en/store-locator/store/639,109,0,947,Riverview,6297,"1559 Alta Vista Drive, Ottawa,K1G 0E9",-75.65716642,45.408769350000000
188,Ottawa,139,K1R 7M2,Rochester Street,Hung Phat Grocery,Mon-Sun: 10:00-19:00,16132370065,Convenience stores and gas stations,Not Available,46,0,957,West Centretown,9856,"139 Rochester Street, Ottawa,K1R 7M2",-75.71168494,45.408857249999997
245,Ottawa,590,K1R 5P3,Gladstone Avenue,New Olympia Market Centre,Mon-Sat:10:00-20:00;Sun:08:00-17:00,16132624480,Convenience stores and gas stations,Not Available,17,1,24,Centretown,24994,"590 Gladstone Avenue, Ottawa,K1R 5P3",-75.70080994,45.409019149999999
196,Ottawa,595,K1R 5P2,Gladstone Avenue,Domestic Foods,"Mon,Sun:10:00-20:00;Tues-Sat:09:00-22:00",-6269,Convenience stores and gas stations,Not Available,17,1,24,Centretown,24994,"595 Gladstone Avenue, Ottawa,K1R 5P2",-75.70109844,45.409177649999997
91,Ottawa,564,K1R 5P3,Gladstone Avenue,Margo Fresh,Mon-Fri:09:00-20:00;Sat: 09:00-19:00;Sun: 10:00-19:00,16137220061,Independent and specialty stores,Not Available,17,1,24,Centretown,24994,"564 Gladstone Avenue, Ottawa,K1R 5P3",-75.70010154,45.409250350000001
249,Ottawa,86,K1Y 1K7,Forward Ave,Silvercity Food Market,Mon-Fri: 09:00-21:00; Sat-Sun: 10:00-21:00,-3739,Convenience stores and gas stations,https://silver-city-food-market.business.site/,26,1,47,Hintonburg - Mechanicsville,9368,"86 Forward Ave, Ottawa,K1Y 1K7",-75.73329835,45.409368149999999
207,Ottawa,794,K1R 6R2,Somerset Street West,Lim Bangkok Grocery,Mon-Sun: 09:00-20:00,16135944673,Independent and specialty stores,Not Available,46,0,957,West Centretown,9856,"794 Somerset Street West, Ottawa,K1R 6R2",-75.71016934,45.409600150000003
341,Ottawa,71,K1R 7N8,Preston Street,Preston Food Market,Mon-Sat: 06:00-21:00;Sun: 07:00-20:00,16132382448,Convenience stores and gas stations,Not Available,46,0,957,West Centretown,9856,"71 Preston Street, Ottawa,K1R 7N8",-75.71473954,45.409660250000002
107,Ottawa,512,K2P 1Z6,Bank Street,C-Store,Mon-Fri: 05:00-23:00;Sat: 06:00-23:00;Sun: 07:00-22:00,-11050,Convenience stores and gas stations,http://macewen.ca/,17,1,24,Centretown,24994,"512 Bank Street, Ottawa,K2P 1Z6",-75.69262743,45.409759549999997
338,Ottawa,791,K1R 6R3,Somerset Street West,Phuoc Loi Orient Grocery,Mon-Sun: 09:00-20:00,16132307352,Independent and specialty stores,Not Available,46,0,957,West Centretown,9856,"791 Somerset Street West, Ottawa,K1R 6R3",-75.71037354,45.409793850000000
433,Ottawa,1010,K1G 4A2,Belfast Road,Mid-East Foods,Mo-Fr 09:00-21:00; Sa 08:00-20:00; Su 09:00-17:00,-3381,Independent and specialty stores,https://www.mideastfoods.com/,55,0,917,East Industrial,2084,"1010 Belfast Road, Ottawa,K1G 4A2",-75.63024452,45.410106259999999
241,Ottawa,143,K1S 5V9,Main Street,NU Grocery,Mon: Closed;Tues-Sun: 10:00-17:00,16132330678,Convenience stores and gas stations,http://nugrocery.com/,73,1,82,Old Ottawa East,6645,"143 Main Street, Ottawa,K1S 5V9",-75.67835673,45.410147950000002
65,Ottawa,775,K1R 6R1,Somerset Street West,Manphong Supermarket,Mon-Fri: 10:00-15:00;Sat-Sun:Closed,16132309934,Independent and specialty stores,Not Available,46,0,957,West Centretown,9856,"775 Somerset Street West, Ottawa,K1R 6R1",-75.70967164,45.410153549999997
315,Ottawa,764,K1R 6P9,Somerset Street West,Little Latin America,Mon-Sat:10:00-18:00;Sun:Closed,16132354970,Independent and specialty stores,Not Available,46,0,957,West Centretown,9856,"764 Somerset Street West, Ottawa,K1R 6P9",-75.70870774,45.410176049999997
347,Ottawa,508,K2P 1Z4,Bank Street,Arum Korean Market,Mon-Sun: 11:00-18:00,-6653,Independent and specialty stores,http://www.sushiboxgroup.com/,17,1,24,Centretown,24994,"508 Bank Street, Ottawa,K2P 1Z4",-75.69265504,45.410270449999999
190,Ottawa,22,K1S 1W7,Pretoria Avenue,Seoul Mart,Mon-Sat: 10:00-19:00;Sun: 11:00-17:00,16135679988,Independent and specialty stores,https://seoulmart.business.site/?utm_source=gmb&utm_medium=referral,23,0,923,Glebe - Dows Lake,12193,"22 Pretoria Avenue, Ottawa,K1S 1W7",-75.68528633,45.410298349999998
328,Ottawa,712,K1R 6P8,Somerset Street West,Kowloon,"Mon-Fri,Sun: 09:30-19:00;Sat:09:00-19:00",16132331108,Independent and specialty stores,Not Available,46,0,957,West Centretown,9856,"712 Somerset Street West, Ottawa,K1R 6P8",-75.70763574,45.410491250000000
17,Ottawa,64," K1S 1V4
",Isabella Street,Loblaws,Mon-Sun: 07:00-22:00,-5062,Supermarkets and traditional formats,https://www.loblaws.ca/store-locator/details/1095,23,0,923,Glebe - Dows Lake,12193,"64 Isabella Street, Ottawa, K1S 1V4
",-75.68580473,45.410491250000000
209,Ottawa,725,K1R 6P7,Somerset Street West,Shiraz Market,Mon-Sat: 09:300-21:00; Sun: 10:00-20:30,16135631207,Independent and specialty stores,Not Available,46,0,957,West Centretown,9856,"725 Somerset Street West, Ottawa,K1R 6P7",-75.70847824,45.410594650000000
239,Ottawa,1000,K1G 4A2,Belfast Road,Price Group,Mon-Thu: 08:00-17:00;Fri: 08:00-16:00;Sat: 08:00-13:00;Sun: Closed,16132414888,Mass merchandisers / club stores,Not Available,55,0,917,East Industrial,2084,"1000 Belfast Road, Ottawa,K1G 4A2",-75.63115512,45.411168459999999
314,Ottawa,676,K1R 6P4,Somerset Street West,Petro-Canada,Mon-Sun:24/7,-10404,Convenience stores and gas stations,https://www.petro-canada.ca/en/personal/gas-station-locations/676-somerset-street-ottawa?utm_source=G&utm_medium=lpm&utm_campaign=suncor,46,0,957,West Centretown,9856,"676 Somerset Street West, Ottawa,K1R 6P4",-75.70583254,45.411207050000002
75,Ottawa,631,K1G 0Z1,Industrial Avenue,Pioneer - Gas Station,Mon-Sun: 24/7,-3603,Convenience stores and gas stations,https://www.pioneer.ca/?utm_source=G&utm_medium=lpm&utm_campaign=parkland,55,0,917,East Industrial,2084,"631 Industrial Avenue, Ottawa,K1G 0Z1",-75.64091762,45.411297849999997
284,Ottawa,197,K1G 3X8,Trainyards Drive,Bulk Barn,Mon-Sun: 09:00-21:00;Sun: 10:00-18:00,-959,Independent and specialty stores,https://www.bulkbarn.ca/home-en/index_deals.html,55,0,917,East Industrial,2084,"197 Trainyards Drive, Ottawa,K1G 3X8",-75.63843552,45.411326060000000
208,Ottawa,685,K1R 6P3,Somerset Street West,Yi Chang Tang,Mon-Sat: 10:00-16:0;Sun:Closed,-5530,Independent and specialty stores,Not available,46,0,957,West Centretown,9856,"685 Somerset Street West, Ottawa,K1R 6P3",-75.70622614,45.411378950000000
357,Ottawa,450,K2P 1Z1,Bank Street,Circle K,Mon-Sun: 24/7,-1198,Convenience stores and gas stations,https://www.circlek.com/ca/ontario/store-locator/CA/ottawa/450-bank-st/0852260?utm_source=google&utm_medium=local&utm_campaign=google-local,17,1,24,Centretown,24994,"450 Bank Street, Ottawa,K2P 1Z1",-75.69360664,45.411644850000002
163,Ottawa,99,K1S 1B7,Main Street,Dixie Dairy,Mon-Fri:08:00-20:00;Sat:08:00-19:00;Sun 11:00-18:00,-6772,Convenience stores and gas stations,Not Available,73,1,82,Old Ottawa East,6645,"99 Main Street, Ottawa,K1S 1B7",-75.67912483,45.411657050000002
481,Ottawa,455,K2P 1Y9,Bank Street,Shoppers Drug Mart,Mon-Sun 09:00-22:00,-9891,Drugstores,https://www.shoppersdrugmart.ca/en/store-locator/store/1428,17,1,24,Centretown,24994,"455 Bank Street, Ottawa,K2P 1Y9",-75.69329094,45.412101950000000
350,Ottawa,1515,K1G 0Z9,St-Laurent Boulevard,MacEwen,Mon-Fri: 05:30-23:00;Sat: 06:00-23:00;Sun:07:00-23:00,16137457404,Convenience stores and gas stations,https://macewen.ca/,55,0,917,East Industrial,2084,"1515 St-Laurent Boulevard, Ottawa,K1G 0Z9",-75.63012902,45.412396760000000
322,Ottawa,820,K1G 0Z4,Belfast Road,Farm Boy,Mon-Sun: 08:00-21:00,-1516,Supermarkets and traditional formats,https://www.farmboy.ca/stores/train-yards/,55,0,917,East Industrial,2084,"820 Belfast Road, Ottawa,K1G 0Z4",-75.63787802,45.412588960000001
300,Ottawa,100,K1G 0Z1,Trainyards Drive,Chuck's Deli and Convenience,Mon-Fri: 07:30-17:00; Sa: 08:00-16:00; Sun: Closed,-2472,Other,Not available,55,0,917,East Industrial,2084,"100 Trainyards Drive, Ottawa,K1G 0Z1",-75.64636422,45.412779460000003
42,Ottawa,450,K1G 0Z3,Industrial Avenue,Walmart Supercentre,Mon-Sun 07:00-22:00,-1674,Mass merchandisers / club stores,https://www.walmart.ca/en/stores-near-me/ottawa-east-on-1031,55,0,917,East Industrial,2084,"450 Industrial Avenue, Ottawa,K1G 0Z3",-75.64988892,45.413139659999999
375,Ottawa,386,K2P 1Y4,Bank Street,Thana Markets,Mon-Thu: 11:00-21:00;Fri: 11:00-21:30;Sat: 10:00-21:30;Sun: 11:00-20:30,-4142,Convenience stores and gas stations,Not available,17,1,24,Centretown,24994,"386 Bank Street, Ottawa,K2P 1Y4",-75.69496024,45.413530850000001
206,Ottawa,322,K2P 1Y1,Bank Street,Quickie,Mon-Sun: 06:00-22:00,-1262,Convenience stores and gas stations,https://www.quickiestores.com/,17,1,24,Centretown,24994,"322 Bank Street, Ottawa,K2P 1Y1",-75.69550104,45.414126750000001
228,Ottawa,388,K2P 1N3,Elgin St,Circle K,Mon-Sun: 24/7,-7281,Convenience stores and gas stations,https://www.circlek.com/ca/ontario/store-locator/CA/ottawa/388-elgin-st/0801358?utm_source=google&utm_medium=local&utm_campaign=google-local,17,1,24,Centretown,24994,"388 Elgin St, Ottawa,K2P 1N3",-75.68764114,45.414485149999997
143,Gloucester,1494,K1B 3V5,Innes Road,Circle K,Mon-Sun: 24/7,-4952,Convenience stores and gas stations,https://www.circlek.com/ca/ontario/store-locator/CA/gloucester/1494-innes-rd/0852557?utm_source=google&utm_medium=local&utm_campaign=google-local,55,0,917,East Industrial,2084,"1494 Innes Road, Gloucester,K1B 3V5",-75.60455731,45.414660560000002
336,Ottawa,296,K2P 1X8,Bank Street,Your Independent Grocer,Mon-Sun 07:00-22:00,-9538,Supermarkets and traditional formats,https://www.yourindependentgrocer.ca/store-locator/details/2691,17,1,24,Centretown,24994,"296 Bank Street, Ottawa,K2P 1X8",-75.69649264,45.415040349999998
366,Ottawa,180,K1S 5J6,Lees Avenue,180 Food Market,Mon-Sun: 08:30-23:00,-4477,Convenience stores and gas stations,Not available,73,1,82,Old Ottawa East,6645,"180 Lees Avenue, Ottawa,K1S 5J6",-75.67065803,45.415399350000001
367,Ottawa,190,K1S 5L5,Lees Avenue,Lees Market,Mon-Fri:08:00-23:00;Sat-Sun: 10:00-23:00,16135650902,Convenience stores and gas stations,https://www.expresspros.com/ottawaon/,73,1,82,Old Ottawa East,6645,"190 Lees Avenue, Ottawa,K1S 5L5",-75.66996733,45.415413460000003
74,Ottawa,245,1R 5Z4,Bay Street,Bayscorner,Mon-Sat: 09:00-20:00; Sun: 10:30- 19:00,-4855,Convenience stores and gas stations,Not available,17,1,24,Centretown,24994,"245 Bay Street, Ottawa,1R 5Z4",-75.70405634,45.415482150000003
213,Ottawa,348,K2P 1M6,Elgin Street,Quickie,Mon-Fri: 06:00- 23:00;Sat-Sun: 07:00-23:00,-9085,Convenience stores and gas stations,https://www.quickiestores.com/,17,1,24,Centretown,24994,"348 Elgin Street, Ottawa,K2P 1M6",-75.68869993,45.415720749999998
210,Ottawa,260,K2P 1X4,Bank Street,Royal Variety Convenience,Mon-Fri: 08:00-22:00;Sat: 11:00-22:00;Sun: 11:00-21:00,16132357797,Convenience stores and gas stations,http://royalvarietyconvenience.square.site/,17,1,24,Centretown,24994,"260 Bank Street, Ottawa,K2P 1X4",-75.69714754,45.416097850000000
318,Ottawa,435,K1R 7X4,Albert Street,Quickie,Mon-Fri: 06:00- 23:00;Sat-Sun: 07:00-23:00,-7332,Convenience stores and gas stations,https://www.quickiestores.com/,17,1,24,Centretown,24994,"435 Albert Street, Ottawa,K1R 7X4",-75.70717824,45.417166150000000
345,Ottawa,280,K2P 1M2,Elgin Street,Zesty Market,Mon-Sun:  24/7,-10288,Convenience stores and gas stations,Not available,17,1,24,Centretown,24994,"280 Elgin Street, Ottawa,K2P 1M2",-75.69005244,45.417274550000002
227,Ottawa,380,K1P 5K3,Laurier Avenue West,JJ's Market,Mon-Sun: 24/7,16132368914,Convenience stores and gas stations,Not Available,17,1,24,Centretown,24994,"380 Laurier Avenue West, Ottawa,K1P 5K3",-75.70093554,45.417624750000002
195,Ottawa,427,K1A 0K1,Laurier Avenue West,Slater Street Market,Mon-Sun: 24/7,16132330434,Convenience stores and gas stations,Not Available,17,1,24,Centretown,24994,"427 Laurier Avenue West, Ottawa,K1A 0K1",-75.70324264,45.417661150000001
486,Ottawa,407,K1R 7Y7,Laurier Avenue West,Rexall,Mon-Fri: 08:0-19:00;Sat: 09:00-17:00;Sun: Closed,-3726,Drugstores,https://www.rexall.ca/storelocator/store/8147,17,1,24,Centretown,24994,"407 Laurier Avenue West, Ottawa,K1R 7Y7",-75.70310114,45.417713550000002
351,Ottawa,407,K1R 7Z0,Laurier Avenue West,Spot Plus,Mon-Fri: 08:00-17:30;Sat: 09:00-14:00;Sun: Closed,-1715,Convenience stores and gas stations,Not available,17,1,24,Centretown,24994,"407 Laurier Avenue West, Ottawa,K1R 7Z0",-75.70281404,45.417777749999999
275,Gloucester,1665,K1B 3L7,Cyrville Road,Moe's,Mon-Fri:06:30-21:00;Sat-Sun:08:30-21:00,16137485535,Convenience stores and gas stations,Not Available,102,1,86,Pineview,6169,"1665 Cyrville Road, Gloucester,K1B 3L7",-75.60803281,45.418143559999997
476,Ottawa,174,K2P 1W6,Bank Street,Shoppers Drug Mart,Mon-Fri: 08:00-22:00;Sat: 09:00-18:00;Sun: 10:00-18:00,-6567,Drugstores,https://www.shoppersdrugmart.ca/en/store-locator/store/988,17,1,24,Centretown,24994,"174 Bank Street, Ottawa,K2P 1W6",-75.69910824,45.418353449999998
191,Gloucester,1627,K1B 3L7,Cyrville Rd,Seaway Gas and Fuel,Not Available,16137476137,Convenience stores and gas stations,Not Available,102,1,86,Pineview,6169,"1627 Cyrville Rd, Gloucester,K1B 3L7",-75.61024461,45.418668760000003
355,Ottawa,193,K2P 0S5,Metcalfe Street,Farm Boy,Mon-Fri: 08:00-21:00;Sat-Sun: 08:00-20:00,+1 613-598-0257,Supermarkets and traditional formats,https://www.farmboy.ca/stores/metcalfe/,17,1,24,Centretown,24994,"193 Metcalfe Street, Ottawa,K2P 0S5",-75.69338954,45.418755050000001
487,Ottawa,160,K2P 2C4,Elgin Street,Rexall,Mon-Sun: 08:00-21:00,-5048,Drugstores,https://www.rexall.ca/storelocator/store/8190,17,1,24,Centretown,24994,"160 Elgin Street, Ottawa,K2P 2C4",-75.69396714,45.419200050000001
142,Gloucester,1941,K1B 4C6,Innes Road,Petro-Canada,Mon-Sun:24/7,-3154,Convenience stores and gas stations,https://www.petro-canada.ca/en/personal/gas-station-locations/1941-innes-road-gloucester?utm_source=G&utm_medium=lpm&utm_campaign=suncor,102,1,86,Pineview,6169,"1941 Innes Road, Gloucester,K1B 4C6",-75.5965681,45.419454260000002
385,Ottawa,160,K2P 2P7,Elgin Street,Circle K,Mon-Sun: 24/7,-8943,Convenience stores and gas stations,https://www.circlek.com/ca/ontario/store-locator/CA/ottawa/11-160-elgin-street/0800367?utm_source=google&utm_medium=local&utm_campaign=google-local,17,1,24,Centretown,24994,"160 Elgin Street, Ottawa,K2P 2P7",-75.69423904,45.419520060000004
483,Ottawa,240,K1P 6C9,Sparks Street,Rexall,Mon-Fri: 08:00-17:00;Sat-Sun: Closed,-2048,Drugstores,https://www.rexall.ca/storelocator/store/1255,17,1,24,Centretown,24994,"240 Sparks Street, Ottawa,K1P 6C9",-75.70265254,45.420248950000001
238,Ottawa,1392,K1L 3M9,Cyrville Road,Africa World Market,Mon-Fri: 10:00-20:00; Sat: 09:00-21:00;Sun: 11:00-19:00,-1181,Independent and specialty stores,http://www.africaworldmarket.ca/,55,0,917,East Industrial,2084,"1392 Cyrville Road, Ottawa,K1L 3M9",-75.62164721,45.420517259999997
217,Ottawa,50,K1A 0S6,O'Connor Street,Ceci Cela,Mon-Fri: 07:30- 16:30,-4099,Convenience stores and gas stations,Not available,17,1,24,Centretown,24994,"50 O'Connor Street, Ottawa,K1A 0S6",-75.69900564,45.420740549999998
390,Ottawa,1435,K1B 3L7,Cyrville Road,Real Canadian Wholesale Club,Mon-Sat: 0:660-18:00;Sun: 09:00-16:00,+1(613) 747-5462,Mass merchandisers / club stores,https://www.wholesaleclub.ca/store-locator/details/0245?utm_source=G&utm_medium=LPM&utm_campaign=Loblaws,55,0,917,East Industrial,2084,"1435 Cyrville Road, Ottawa,K1B 3L7",-75.61789481,45.420769360000001
379,Ottawa,109,K1N 5A4,Mann Avenue,Barwaaqo Food Centre,Mon-Sat: 10:00-20:00,-11246,Convenience stores and gas stations,Not available,41,0,949,Sandy Hill,11365,"109 Mann Avenue, Ottawa,K1N 5A4",-75.67230773,45.421248060000003
381,Ottawa,118,K1N 5A4,Mann Avenue,Quickie,Mon-Fri: 06:00- 23:00;Sat-Sun: 07:00-23:00,-1334,Convenience stores and gas stations,https://www.quickiestores.com/,41,0,949,Sandy Hill,11365,"118 Mann Avenue, Ottawa,K1N 5A4",-75.67195553,45.421367259999997
105,Navan,1220,K4B 1J4,Colonial Rd,J.T. Bradley's,Mon-Fri: 07:00-20:00;Sat:08:00-20:00;Sun: 08:00-18:00,16138353781,Convenience stores and gas stations,Not Available,97,0,936,Navan - Sarsfield,4253,"1220 Colonial Rd, Navan,K4B 1J4",-75.42529945,45.421622970000001
455,Ottawa,1200,K1K 3B8,St-Laurent Boulevard,Shoppers Drug Mart,Mon-Sat: 09:30-21;00; Sun:11:00-17:00,-8372,Drugstores,https://www.shoppersdrugmart.ca/en/store-locator/store/621,36,0,940,Overbrook - McArthur,19599,"1200 St-Laurent Boulevard, Ottawa,K1K 3B8",-75.63923532,45.422959259999999
246,Ottawa,296,K1N 6W1,Somerset Street East,Safi Fine Foods,Mon-Sat 07:00-23:00; Sun 09:00-21:00,16134227234,Independent and specialty stores,https://www.facebook.com/profile.php?id=100054427691941,41,0,949,Sandy Hill,11365,"296 Somerset Street East, Ottawa,K1N 6W1",-75.67582343,45.423768959999997
106,Ottawa,287,K1N 6V7,Somerset Street East,Quickie,Mon-Fri: 06:00- 23:00;Sat-Sun: 07:00-23:00,-861,Convenience stores and gas stations,https://www.quickiestores.com/,41,0,949,Sandy Hill,11365,"287 Somerset Street East, Ottawa,K1N 6V7",-75.67658183,45.423780659999998
360,Ottawa,289,K1K 1X1,Queen Mary Street,Silver City Food Market Two,Mon-Fri: 06:00-21:00;Sat:08:00-20:00;Sun: 08:00-19:00,16137420215,Convenience stores and gas stations,Not Available,36,0,940,Overbrook - McArthur,19599,"289 Queen Mary Street, Ottawa,K1K 1X1",-75.65303302,45.425293259999997
359,Ottawa,1034,K1K 3P9,Lola Street,Lola's Confectionery,Mon-Fri:06:00-22:00;Sat: 07:00-21:00;Sun 08:00-19:00,16137410802,Convenience stores and gas stations,Not Available,36,0,940,Overbrook - McArthur,19599,"1034 Lola Street, Ottawa,K1K 3P9",-75.65253992,45.425330260000003
302,Ottawa,50,K1N 9J7,Rideau Street,Farm Boy,Mon-Sat: 08:00-21:00;Sun: 10;00-18:00,-1889,Supermarkets and traditional formats,https://www.farmboy.ca/stores/rideau/,41,0,949,Sandy Hill,11365,"50 Rideau Street, Ottawa,K1N 9J7",-75.69283904,45.425432460000003
473,Ottawa,50,K1N 9J7,Rideau Street,Shoppers Drug Mart,Mon-Sat: 10:00-21:00; Sun 11:00-18:00,-3381,Drugstores,https://www.shoppersdrugmart.ca/en/store-locator/store/631,41,0,949,Sandy Hill,11365,"50 Rideau Street, Ottawa,K1N 9J7",-75.69230524,45.425624560000003
340,Ottawa,210,K1N 6P2,Laurier Avenue East,Circle K,Mon-Sun: 24/7,-8523,Convenience stores and gas stations,https://www.circlek.com/ca/ontario/store-locator/CA/ottawa/210-laurier-avenue-east/0800191?utm_source=google&utm_medium=local&utm_campaign=google-local,41,0,949,Sandy Hill,11365,"210 Laurier Avenue East, Ottawa,K1N 6P2",-75.68176563,45.425640760000000
159,Gloucester,1134,K1J 8V1,Ogilvie Rd,Pioneer - Gas Station,Mon-Sun: 24/7,-10264,Convenience stores and gas stations,https://www.pioneer.ca/?utm_source=G&utm_medium=lpm&utm_campaign=parkland,36,0,940,Overbrook - McArthur,19599,"1134 Ogilvie Rd, Gloucester,K1J 8V1",-75.63115172,45.426043559999997
380,Ottawa,487,K1N 7K1,Cumberland Street,Remac,Mon-Sat: 08:00-21:00;Sun 10:00-18:99,16132307333,Convenience stores and gas stations,Not Available,41,0,949,Sandy Hill,11365,"487 Cumberland Street, Ottawa,K1N 7K1",-75.68596703,45.426292359999998
226,Ottawa,1,K1N 5X4,Nicholas Street,Wix Mart,Mon-Thu: 07:00-23:00;Fri: 07:00-14:00; Sat: 08:00-14:00;Sun: 09:00-23:00,-6846,Convenience stores and gas stations,Not available,41,0,949,Sandy Hill,11365,"1 Nicholas Street, Ottawa,K1N 5X4",-75.69010884,45.426522759999997
395,Ottawa,1021,K1J 7S3,Cyrville Road,Food Basics,Mon-Fri:08:00-21:00;Sat-Sun:08:00-20:00,-5899,Supermarkets and traditional formats,http://www.foodbasics.ca/,36,0,940,Overbrook - McArthur,19599,"1021 Cyrville Road, Ottawa,K1J 7S3",-75.63659752,45.426714959999998
221,Gloucester,1137,K1J 7P6,Ogilvie Road,Win Tai Market,"Mon-Fri:10:00-18:00,Sat-Sun: 09:30-18:00",-4236,Independent and specialty stores,Not available,36,0,940,Overbrook - McArthur,19599,"1137 Ogilvie Road, Gloucester,K1J 7P6",-75.63106662,45.426743960000003
415,Ottawa,275,K1N 6P7,Laurier Avenue East,Food Frenz,Mon-Sun: 09:00-22:00,16132330725,Independent and specialty stores,https://www.foodfrenz.ca/,41,0,949,Sandy Hill,11365,"275 Laurier Avenue East, Ottawa,K1N 6P7",-75.68011083,45.426768760000002
371,Ottawa,159,K1N 5X1,Rideau Street,Zesty Mart,Mon-Sun:  24/7,-10741,Convenience stores and gas stations,Not available,71,0,908,Byward Market,5382,"159 Rideau Street, Ottawa,K1N 5X1",-75.68991684,45.427184959999998
16,Ottawa,1021,K1K 3B1,St-Laurent Boulevard,Marché Adonis,"Mon-Wed,Sat-Sun:08:00-20:00;Thu-Fri:08:00-21:00",+1(613) 778-8883,Supermarkets and traditional formats,https://www.groupeadonis.ca/en/find-us/marche-adonis-ottawa,36,0,940,Overbrook - McArthur,19599,"1021 St-Laurent Boulevard, Ottawa,K1K 3B1",-75.63699802,45.427338759999998
280,Gloucester,2063,K1B 4W7,Meadowbrook Road,Circle K,Mon-Sun: 24/7,-8570,Convenience stores and gas stations,https://www.circlek.com/ca/ontario/store-locator/CA/gloucester/2063-meadowbrook-rd/0868014?utm_source=google&utm_medium=local&utm_campaign=google-local,102,1,86,Pineview,6169,"2063 Meadowbrook Road, Gloucester,K1B 4W7",-75.60131911,45.427440959999998
294,Ottawa,1020,K1K 4S2,St-Laurent Boulevard,Geeland Baguio Store,Mon-Sat:09:30-20:00;Sun-10:30-18:00,16137424282,Independent and specialty stores,http://geeland.ca/,36,0,940,Overbrook - McArthur,19599,"1020 St-Laurent Boulevard, Ottawa,K1K 4S2",-75.63980752,45.427576960000003
372,Ottawa,345,K1N 7G1,Dalhousie Street,Millennium Convenience,Mon-Sun:08:00-22:00,-2950,Convenience stores and gas stations,Not Available,71,0,908,Byward Market,5382,"345 Dalhousie Street, Ottawa,K1N 7G1",-75.69047204,45.428296660000001
199,Ottawa,431,K1K 1L8,Donald Street,Quickie,Mon-Fri: 06:00- 23:00;Sat-Sun: 07:00-23:00,-2001,Convenience stores and gas stations,https://www.quickiestores.com/,36,0,940,Overbrook - McArthur,19599,"431 Donald Street, Ottawa,K1K 1L8",-75.64931912,45.428455059999997
90,Ottawa,1007,K1K 3B1,St-Laurent Boulevard,Petro-Canada,Mon-Sun:24/7,-4882,Convenience stores and gas stations,https://www.petro-canada.ca/en/personal/gas-station-locations/1007-st-laurent-blvd-ottawa?utm_source=G&utm_medium=lpm&utm_campaign=suncor,36,0,940,Overbrook - McArthur,19599,"1007 St-Laurent Boulevard, Ottawa,K1K 3B1",-75.63900992,45.428485760000001
219,Ottawa,455,K1K 1L8,Donald Street,Esso,Mon-Fri:-6:30-10:00;Sat:08:00-22:00;Sun:09:00-19:00,16137470643,Convenience stores and gas stations,https://www.esso.ca/en-ca/find-station/ESSO-OTTAWA-ON-TARGETFUEL-200323850?utm_source=google&utm_medium=organic&utm_campaign=gmb,36,0,940,Overbrook - McArthur,19599,"455 Donald Street, Ottawa,K1K 1L8",-75.64794182,45.428681859999998
78,Ottawa,292,K1N 5Y5,Rideau Street,Petro-Canada,Mon-Sun:24/7,-4601,Convenience stores and gas stations,https://www.petro-canada.ca/en/personal/gas-station-locations/292-rideau-street-ottawa?utm_source=G&utm_medium=lpm&utm_campaign=suncor,41,0,949,Sandy Hill,11365,"292 Rideau Street, Ottawa,K1N 5Y5",-75.68520124,45.428688360000002
480,Ottawa,322,K1N 5Y5,Rideau Street,Shoppers Drug Mart,Mon-Sun 09:00-22:00,-11101,Drugstores,https://www.shoppersdrugmart.ca/en/store-locator/store/1243,41,0,949,Sandy Hill,11365,"322 Rideau Street, Ottawa,K1N 5Y5",-75.68450813,45.429068460000003
2,Ottawa,100,K1L 8H5,McArthur Avenue,Loblaws,Mon-Sun: 07:00-22:00,-2061,Supermarkets and traditional formats,https://www.loblaws.ca/store-locator/details/1014,36,0,940,Overbrook - McArthur,19599,"100 McArthur Avenue, Ottawa,K1L 8H5",-75.66467483,45.429437059999998
461,Ottawa,298,K1N 7E7,Dalhousie Street,Shoppers Drug Mart,Mon-Fri: 08:30-18:00; Sat: 09:00-17:00; Sun: Closed,-2724,Drugstores,https://www.shoppersdrugmart.ca/en/store-locator/store/1273,71,0,908,Byward Market,5382,"298 Dalhousie Street, Ottawa,K1N 7E7",-75.69180824,45.429468360000001
244,Ottawa,100,K1N 0A1,Murray Street,Exotic Bottega,"Mon-Tues:16:00-20:00;Wed,Thu:13:00-21:00;Fri,Sat:11:00-24:00;Sun:11:00-21:00",Not Available,Independent and specialty stores,http://exoticbottega.com/,71,0,908,Byward Market,5382,"100 Murray Street, Ottawa,K1N 0A1",-75.69336014,45.429665659999998
29,Ottawa,333,K1N 5Y4,Rideau Street,Circle K,Mon-Sun: 24/7,-9199,Convenience stores and gas stations,https://www.circlek.com/ca/ontario/store-locator/CA/ottawa/333-rideau-street/0800935?utm_source=google&utm_medium=local&utm_campaign=google-local,34,0,934,Lowertown,5917,"333 Rideau Street, Ottawa,K1N 5Y4",-75.68439083,45.429687360000003
434,Ottawa,382,K1N 5Y8,Rideau Street,Mergi Shop,Mon-Thu 12:00-21:00; Fri-Sat 12:00-21:30; Sun 12:00-21:00,16133666459,Independent and specialty stores,https://mergishop.com/,41,0,949,Sandy Hill,11365,"382 Rideau Street, Ottawa,K1N 5Y8",-75.68278243,45.429830559999999
28,Ottawa,363,K1N 5Y6,Rideau Street,Loblaws,Mon-Sun: 07:00-22:00,-4731,Supermarkets and traditional formats,https://www.loblaws.ca/store-locator/details/1170,34,0,934,Lowertown,5917,"363 Rideau Street, Ottawa,K1N 5Y6",-75.68387884,45.430178560000002
1,Ottawa,320,K1L 5G2,McArthur Avenue,FreshCo,Mon-Sun: 07:00-23:00,-5699,Supermarkets and traditional formats,https://freshco.com/flyer/?store_id=78925,36,0,940,Overbrook - McArthur,19599,"320 McArthur Avenue, Ottawa,K1L 5G2",-75.65385602,45.430244860000002
369,Ottawa,262,K1N 7E4,Dalhousie Street,Michel's,Mon-Fri: 07:00-18:00;Sat-Sun: 11:00-17:00,16132414316,Convenience stores and gas stations,Not Available,71,0,908,Byward Market,5382,"262 Dalhousie Street, Ottawa,K1N 7E4",-75.69263904,45.430496959999999
167,Gloucester,2636,K1B 4Z8,Innes Road,Metro,Mon-Fri: 08:00-22:00; Sat-Sun: 08:00-21:00,-3294,Supermarkets and traditional formats,https://www.metro.ca/en/find-a-grocery/284,66,0,904,Blackburn Hamlet,8172,"2636 Innes Road, Gloucester,K1B 4Z8",-75.56323039,45.430917260000001
469,Gloucester,2638, K1B 4Z5,Innes Road,Shoppers Drug Mart,Mon-Sun: 08:00-22:00,-3693,Drugstores,https://www.shoppersdrugmart.ca/en/store-locator/store/634,66,0,904,Blackburn Hamlet,8172,"2638 Innes Road, Gloucester, K1B 4Z5",-75.56264899,45.431140059999997
343,Ottawa,490,K1N 8L4,Rideau Street,Quickie,Mon-Sun: 24/7,-6855,Convenience stores and gas stations,https://www.quickiestores.com/,41,0,949,Sandy Hill,11365,"490 Rideau Street, Ottawa,K1N 8L4",-75.67901333,45.431368859999999
110,Gloucester,1980,K1J 9L3,Ogilvie Road,Walmart Supercentre,Mon-Sun 07:00-22:00,-1565,Mass merchandisers / club stores,https://www.walmart.ca/en/stores-near-me/gloucester-1158,15,0,912,Carson Grove - Carson Meadows,10694,"1980 Ogilvie Road, Gloucester,K1J 9L3",-75.61062031,45.431394359999999
374,Vanier,300,K1L 6P2,McArthur Avenue,Moussa Mini Market & Meat Shop,Mon-Sat:09:00-21:00;Sun:09:00-20:00,16137457900,Independent and specialty stores,https://mossa-market-meat-shop.business.site/,36,0,940,Overbrook - McArthur,19599,"300 McArthur Avenue, Vanier,K1L 6P2",-75.65588792,45.431459660000002
281,Gloucester,2672,K1B 4Z5,Innes Road,Circle K,Mon-Sun: 24/7,-10036,Convenience stores and gas stations,https://www.circlek.com/ca/ontario/store-locator/CA/kanata/500-hazeldean-rd-unit-20/0801033?utm_source=google&utm_medium=local&utm_campaign=google-local,66,0,904,Blackburn Hamlet,8172,"2672 Innes Road, Gloucester,K1B 4Z5",-75.56281799,45.431925560000003
87,Vanier,313,K1L 6P1,McArthur Avenue,Circle K,Mon-Sun: 24/7,-6078,Convenience stores and gas stations,https://www.circlek.com/ca/ontario/store-locator/CA/vanier/313-mcarthur-road/0800201?utm_source=google&utm_medium=local&utm_campaign=google-local,45,0,954,Vanier South,6759,"313 McArthur Avenue, Vanier,K1L 6P1",-75.65503482,45.431937660000003
414,Vanier,175,K1L 6P8,McArthur Ave.,Green Fresh,Mon-Sat 09:00-21:00; Sun 09:00-20:00,+1 613-748-1038,Independent and specialty stores,https://greenfreshsupermarketvanier.business.site/,45,0,954,Vanier South,6759,"175 McArthur Ave., Vanier,K1L 6P8",-75.66274233,45.431960560000000
220,Ottawa,411,K1K 1G7,McArthur Avenue,All Africa Market,Mon-Tues: 11:00-19:00; Wed-Sat: 10:00-20:00;Sun 11;300-17:30,-4828,Independent and specialty stores,https://africaworldmarket.ca/,45,0,954,Vanier South,6759,"411 McArthur Avenue, Ottawa,K1K 1G7",-75.64843332,45.432286560000001
109,Vanier,379,K1L 6N5,McArthur Avenue,MC Halal Grocery,Mon: 10:00-18:00;Tues-Sat: 10:00-20:00;Sun:10:00-17:00,16137446634,Independent and specialty stores,Not Available,45,0,954,Vanier South,6759,"379 McArthur Avenue, Vanier,K1L 6N5",-75.65057422,45.432304459999997
108,Vanier,381,K1L 6N5,McArthur Avenue,Mario's Food Centre,"Mon,Wed,Thu.Sat: 10:00-17:00; Fri:10:00-18:00;Sun: 10:00-15:00,Tues: Closed",16137491247,Independent and specialty stores,http://www.mariosfoodcentre.com/,45,0,954,Vanier South,6759,"381 McArthur Avenue, Vanier,K1L 6N5",-75.65050682,45.432309359999998
283,Vanier,383,K1L 6N5,McArthur Avenue,Al-Mokhtar Food Centre,Mon-Sat: 09:00-20:00;Sun: 10:00-18:00,-10233,Independent and specialty stores,Not available,45,0,954,Vanier South,6759,"383 McArthur Avenue, Vanier,K1L 6N5",-75.65044562,45.432340959999998
361,Gloucester,1980,"K1J 9L3
",Ogilvie Road,Bulk Barn,Mon-Sat: 09:30-20:30; Sun 10:00-17:00,-6714,Independent and specialty stores,https://www.bulkbarn.ca/home-en/index_deals.html,15,0,912,Carson Grove - Carson Meadows,10694,"1980 Ogilvie Road, Gloucester,K1J 9L3
",-75.60954591,45.432555460000003
421,Ottawa,207,K1N 5J3,Guigues Avenue,Kaz Kitchen,Mon-Fri: 09:00-10:00;Sat-Sum: 11:00-22:00,-4611,Convenience stores and gas stations,https://kaz576.wixsite.com/my-site,71,0,908,Byward Market,5382,"207 Guigues Avenue, Ottawa,K1N 5J3",-75.69113194,45.432664359999997
485,Gloucester,1980,K1J 9L3,Ogilvie Road,Rexall,Mon-Fri: 09:00-20:00; Sat-Sun: 09:00-17:00,-10854,Drugstores,https://www.rexall.ca/storelocator/store/1156,15,0,912,Carson Grove - Carson Meadows,10694,"1980 Ogilvie Road, Gloucester,K1J 9L3",-75.60982461,45.432859460000003
344,Ottawa,596,K1N 6A2,Rideau St,Hasty Market,Mon-Thu:07:00-22:00;Fri-Sun: 07:00-23:00,16135621099,Convenience stores and gas stations,http://hastymarketcorp.com/,41,0,949,Sandy Hill,11365,"596 Rideau St, Ottawa,K1N 6A2",-75.67543523,45.432876559999997
282,Vanier,1,K1L 6E8,Montréal Road,Shell Select,Mon-Sun: 24/7,-2136,Convenience stores and gas stations,https://find.shell.com/ca/fuel/10052618-montreal-rd-river-rd/en_CA,52,0,953,Vanier North,9634,"1 Montréal Road, Vanier,K1L 6E8",-75.66972233,45.433341859999999
166,Gloucester,1970,K1J 9MB,Ogilvie Rd,Mr Gas,Mon-Fri: 06:00-23:00;Sat-Sun: 07:00-23:00,16137440759,Convenience stores and gas stations,https://mrgasltd.ca/,15,0,912,Carson Grove - Carson Meadows,10694,"1970 Ogilvie Rd, Gloucester,K1J 9MB",-75.61246281,45.433345060000001
111,Ottawa,1980,K1J 9L3,Ogilvie Road,Loblaws,Mon-Sun: 07:00-22:00,-7082,Supermarkets and traditional formats,https://www.loblaws.ca/store-locator/details/1051,15,0,912,Carson Grove - Carson Meadows,10694,"1980 Ogilvie Road, Ottawa,K1J 9L3",-75.61041981,45.433456659999997
223,Vanier,67,K1L 6E8,Montréal Road,Mercado Latino,Mon-Fri:10:00-19:00;Sat-Sun_10:0-17:00,16137473795,Independent and specialty stores,Not Available,52,0,953,Vanier North,9634,"67 Montréal Road, Vanier,K1L 6E8",-75.66803823,45.433728760000001
370,Ottawa,168,K1N 7L3,King Edward Avenue,Blue Nile Grocery Store,Mon-Sat: 08:00-19:00;Sun: 09:00-18:00,-2706,Convenience stores and gas stations,Not avaliable,71,0,908,Byward Market,5382,"168 King Edward Avenue, Ottawa,K1N 7L3",-75.69040764,45.433833759999999
193,Vanier,120,K1L 6E6,Montréal Road,Circle K,Mon-Sun: 24/7,-2575,Convenience stores and gas stations,https://www.circlek.com/ca/ontario/store-locator/CA/vanier/120-montreal-rd/0852626?utm_source=google&utm_medium=local&utm_campaign=google-local,45,0,954,Vanier South,6759,"120 Montréal Road, Vanier,K1L 6E6",-75.66604133,45.434065660000002
479,Ottawa,150,K1L 8H2,Montréal Road,Shoppers Drug Mart,Mon-Sun 08:00-22:00,+1 613-842-7544,Drugstores,https://www.shoppersdrugmart.ca/en/store-locator/store/1229,45,0,954,Vanier South,6759,"150 Montréal Road, Ottawa,K1L 8H2",-75.66459963,45.434531960000001
320,Gloucester,1405,K1J 1A5,Blair Towers Place,Costco,Mon-Fri: 09:00-20:30;Sat-Sun: 09:00-18:00,-8910,Mass merchandisers / club stores,https://www.costco.ca/warehouse-locations/gloucester-ON-1362.html?utm_term=KW&utm_campaign=Homepage&utm_medium=GMB&utm_source=Google&utm_content=Link,2,1,3,Beacon Hill South - Cardinal Heights,7195,"1405 Blair Towers Place, Gloucester,K1J 1A5",-75.60337141,45.434964860000001
189,Vanier,183, K1L 6E2,Montréal Road,By Grace Food Market,Mon-Sat: 10:00-20:00;Sun: 14:00-18:00,-2815,Independent and specialty stores,Not avaliable,52,0,953,Vanier North,9634,"183 Montréal Road, Vanier, K1L 6E2",-75.66409913,45.435249159999998
459,Gloucester,2016, K1J 7N9,Ogilvie Road,Shoppers Drug Mart,Mon-Sun: 08:00-22:00,-6504,Drugstores,https://www.shoppersdrugmart.ca/en/store-locator/store/637,2,1,3,Beacon Hill South - Cardinal Heights,7195,"2016 Ogilvie Road, Gloucester, K1J 7N9",-75.60465191,45.436570459999999
353,Vanier,272,K1L 6C3,Montréal Road,Mama Cora Latin Market,Not Available,Not Available,Convenience stores and gas stations,http://mamacoralatinmarket.ca/,45,0,954,Vanier South,6759,"272 Montréal Road, Vanier,K1L 6C3",-75.65989083,45.436640959999998
194,Ottawa,355,K1L 6B1,Montréal Road,Kabul Food Market,Mon-Sat:10:00-18:00;Sun 10:00-16:00,16138976666,Independent and specialty stores,Not Available,52,0,953,Vanier North,9634,"355 Montréal Road, Ottawa,K1L 6B1",-75.65490403,45.438769559999997
373,Vanier,273,K1L 5N8,Montfort,Mini Confectionary,Mon-Sat:09:00-18:00; Sun:09:00-17:00,+1(613) 749-4134,Convenience stores and gas stations,Not Available,52,0,953,Vanier North,9634,"273 Montfort, Vanier,K1L 5N8",-75.66157203,45.438961259999999
160,Vanier,395,K1L 6A8,Montréal Road,Circle K,Mon-Sun: 24/7,-6858,Convenience stores and gas stations,https://www.circlek.com/ca/ontario/store-locator/CA/vanier/395-montreal-road/0801817,52,0,953,Vanier North,9634,"395 Montréal Road, Vanier,K1L 6A8",-75.65411433,45.439076059999998
5,Ottawa,50,K1L 8B3,Beechwood Avenue,Metro,Mon-Sun: 07:00-22:00,-8032,Supermarkets and traditional formats,https://www.metro.ca/en/find-a-grocery/281,52,0,953,Vanier North,9634,"50 Beechwood Avenue, Ottawa,K1L 8B3",-75.67561233,45.439436059999998
215,Vanier,46,K1L 7Z1,St Chales St,St. Charles Food Market,Mon-Sun: 07:00-22:00,-10461,Convenience stores and gas stations,Not available,52,0,953,Vanier North,9634,"46 St Chales St , Vanier,K1L 7Z1",-75.67221773,45.439561859999998
230,Vanier,308,K1L 5M4,Shakespeare Street,Ste-Anne Convenience,Mon-Sat: 10:00-20:00; Sun: Closed,-7630,Convenience stores and gas stations,Not available,52,0,953,Vanier North,9634,"308 Shakespeare Street, Vanier,K1L 5M4",-75.65921883,45.439565660000000
349,Vanier,64,K1L 8B2,Beechwood Avenue,Quickie,Mon-Sun: 24/7,-8612,Convenience stores and gas stations,https://www.quickiestores.com/,52,0,953,Vanier North,9634,"64 Beechwood Avenue, Vanier,K1L 8B2",-75.67508933,45.440055760000000
298,Ottawa,596,K1K 0T9,Montréal Road,Your Independent Grocer,Mon-Fri: 08:00-21:00;Sat-Sun: 08:00-20:00,+1 613-745-0788,Supermarkets and traditional formats,https://www.yourindependentgrocer.ca/store-locator/details/2670,36,0,940,Overbrook - McArthur,19599,"596 Montréal Road, Ottawa,K1K 0T9",-75.64319232,45.441118260000003
236,Ottawa,590,K1K 0T9,Montreal Rd,Pioneer - Gas Station,Mon-Sun: 24/7Mon-Sun: 24/7,-9227,Convenience stores and gas stations,https://www.pioneer.ca/?utm_source=G&utm_medium=lpm&utm_campaign=parkland,36,0,940,Overbrook - McArthur,19599,"590 Montreal Rd, Ottawa,K1K 0T9",-75.64426652,45.441610560000001
277,Ottawa,621,K1K 2N8,Center Street,GB Caribbean Grocery,Mon-Sat: 09:00-21:00; Sun:09:30-18:00,16137446863,Convenience stores and gas stations,Not Available,36,0,940,Overbrook - McArthur,19599,"621 Center Street, Ottawa,K1K 2N8",-75.64260582,45.441634160000000
378,Ottawa,117,K1M 1L6,Beechwood Avenue,Red Door Provisions,Mon-Fri:07:00-17:00;Sat-Sun: 08:00-17:00,16136956804,Independent and specialty stores,http://www.reddoorprovisions.com/,33,0,933,Lindenlea - New Edinburgh,4779,"117 Beechwood Avenue, Ottawa,K1M 1L6",-75.67298093,45.441694159999997
448,Ottawa,541, K1K 0V1,Montréal Road,Shoppers Drug Mart,Mon-Sun: 08:00-22:00,-1968,Drugstores,https://www.shoppersdrugmart.ca/en/store-locator/store/641,110,0,935,Manor Park,7016,"541 Montréal Road, Ottawa, K1K 0V1",-75.64628842,45.441794659999999
93,Ottawa,598,K1K 0T6,Montréal Road,Circle K,Mon-Sun: 24/7,-10540,Convenience stores and gas stations,https://www.circlek.com/store-locator/CA/ottawa/598-montreal-road/0800219,36,0,940,Overbrook - McArthur,19599,"598 Montréal Road, Ottawa,K1K 0T6",-75.64287962,45.442100859999996
212,Ottawa,654,K1K 0T3,Montréal Rd,Sweet Daddy,"Sunday:8 a.m.–10 p.m.
Monday	7 a.m.–10 p.m.
Tuesday	7 a.m.–10 p.m.
Wednesday: 7 a.m.–10 p.m.
Thursday:7 a.m.–10 p.m.
Friday:7 a.m.–10 p.m.
Saturday:8 a.m.–10 p.m.
",-1375,Convenience stores and gas stations,https://sweetdaddy.ca/,36,0,940,Overbrook - McArthur,19599,"654 Montréal Rd, Ottawa,K1K 0T3",-75.64024922,45.442829860000003
6,Ottawa,585,K1K 4K3,Montréal Road,Farm Boy,Mon-Fri: 08:00-21:00;Sat-Sun: 08:00-20:00,-4819,Supermarkets and traditional formats,https://www.farmboy.ca/stores/hillside/,110,0,935,Manor Park,7016,"585 Montréal Road, Ottawa,K1K 4K3",-75.64469822,45.443114059999999
150,Vanier,40,K1L 5H5,Jolliet Avenue,Fresh Grocer,Mon-Sun:08:00-22:00,16137468349,Convenience stores and gas stations,Not Available,52,0,953,Vanier North,9634,"40 Jolliet Avenue, Vanier,K1L 5H5",-75.66872683,45.443155560000001
237,Vanier,101, K1L 5E6,Lavergne Street,Vanier Foodmart,Mon-Sun: 08:00-21:00,-5993,Convenience stores and gas stations,Not available,52,0,953,Vanier North,9634,"101 Lavergne Street, Vanier, K1L 5E6",-75.66516963,45.443159459999997
494,Ottawa,753,K1K 0T1,Montréal Rd,Rexall,Mon-Fri: 08:00-21:00; Sat-Sun: 09:00-21:00,-6153,Drugstores,https://www.rexall.ca/storelocator/store/8134,51,0,956,Wateridge Village,613,"753 Montréal Rd, Ottawa,K1K 0T1",-75.63651866,45.444949399999999
175,Gloucester,1930,K1J 6N2,Montréal Road,Metro,Mon-Fri: 08:00-22:00; Sat-Sun: 08:00-21:00,-4317,Supermarkets and traditional formats,https://www.metro.ca/en/find-a-grocery/273,2,1,3,Beacon Hill South - Cardinal Heights,7195,"1930 Montréal Road, Gloucester,K1J 6N2",-75.59521881,45.445397059999998
354,Gloucester,1730,K1J 6N3,Montréal Road,M.Y Food Mart,"Mon-Fri: 08:00-21:00;Sat,Sun:09:00-21:00",16137476000,Convenience stores and gas stations,Not Available,2,1,3,Beacon Hill South - Cardinal Heights,7195,"1730 Montréal Road, Gloucester,K1J 6N3",-75.61009851,45.445635359999997
278,Ottawa,876,K1K 4L3,Montréal Road,Carson Fresh Grocer,Mon-Sun:10:00-22:00,16137496531,Independent and specialty stores,Not Available,15,0,912,Carson Grove - Carson Meadows,10694,"876 Montréal Road, Ottawa,K1K 4L3",-75.63055922,45.445658960000003
468,Ottawa,876,K1K 4L3,Montréal Road,Shoppers Drug Mart,"Mon,Wed,Fri: 09:20:00;Tue,Thu: 09:00-18:00; Sat-Sun: 09:00-13:00",-5013,Drugstores,https://www.shoppersdrugmart.ca/en/store-locator/store/1556,15,0,912,Carson Grove - Carson Meadows,10694,"876 Montréal Road, Ottawa,K1K 4L3",-75.63036082,45.445706760000000
285,Gloucester,1724,K1J 6N5,Montréal Road,Korems Food & Variety Store,Mon-Sat:09:00-21:00;Sun 12:00-18:00,+1(343) 984-4455,Convenience stores and gas stations,Not Available,2,1,3,Beacon Hill South - Cardinal Heights,7195,"1724 Montréal Road, Gloucester,K1J 6N5",-75.61062901,45.445810160000001
299,Ottawa,920,K1K 0S8,Montréal Road,Nick's Confectionary,Mon-Sun: 09:00-22:00,16137457496,Convenience stores and gas stations,Not Available,15,0,912,Carson Grove - Carson Meadows,10694,"920 Montréal Road, Ottawa,K1K 0S8",-75.62868582,45.446339060000000
424,Orleans,3469,K1C 1T1,Innes Road,Pronto Food Mart,Mon-Sun: 24/7,16138347925,Convenience stores and gas stations,http://pronto-food-mart.foodpages.ca/,18,0,913,Chapel Hill North,10798,"3469 Innes Road, Orleans,K1C 1T1",-75.52715378,45.447242969999998
383,Ottawa,437,"K1K 2Z8
",St-Laurent Boulevard,Circle K,Mon-Sun: 24/7,-1586,Convenience stores and gas stations,https://www.circlek.com/ca/ontario/store-locator/CA/ottawa/437-st-laurent-blvd/0800454?utm_source=google&utm_medium=local&utm_campaign=google-local,110,0,935,Manor Park,7016,"437 St-Laurent Boulevard, Ottawa,K1K 2Z8
",-75.64978742,45.447388560000000
174,Ottawa,2075,K1J 6M6,Montréal Road,Circle K,Mon-Sun: 24/7,+1-613)-741-8787,Convenience stores and gas stations,https://www.circlek.com/ca/ontario/store-locator/CA/ottawa/2075-montreal-rd/0852625?utm_source=google&utm_medium=local&utm_campaign=google-local,58,1,93,Rothwell Heights - Beacon Hill North,10359,"2075 Montréal Road, Ottawa,K1J 6M6",-75.59395581,45.448028059999999
301,Orleans,1600,K1C 6X7,Forest Valley Drive,Circle K,Mon-Sun: 24/7,-3117,Convenience stores and gas stations,https://www.circlek.com/ca/ontario/store-locator/CA/orleans/1600-forest-valley-drive/0801756?utm_source=google&utm_medium=local&utm_campaign=google-local,18,0,913,Chapel Hill North,10798,"1600 Forest Valley Drive, Orleans,K1C 6X7",-75.53574209,45.448827870000002
306,Gloucester,2200,K1J 6M5,Montréal Road,Kool Runnings,Mon-Fri: 10:00-19:00;Sat:Closed;Sun:11:00-17:00,16137419101,Independent and specialty stores,Not Available,2,1,3,Beacon Hill South - Cardinal Heights,7195,"2200 Montréal Road, Gloucester,K1J 6M5",-75.5869973,45.449487859999998
407,Orleans,3712,K1W 0C8,Innes Road,Food Basics,Mon-Fri:08:00-21:00;Sat-Sun:08:00-20:00,+1(613) 837-0650,Supermarkets and traditional formats,http://www.foodbasics.ca/,65,1,75,Chapel Hill South,7298,"3712 Innes Road, Orleans,K1W 0C8",-75.51721808,45.449602669999997
122,Ottawa,2302,K4A 0X4,Tenth Line Road,Circle K,Mon-Sun: 24/7,-2082,Convenience stores and gas stations,https://www.circlek.com/store-locator/CA/ottawa/2302-tenth-line-road/0801815,64,0,942,Portobello South,16313,"2302 Tenth Line Road, Ottawa,K4A 0X4",-75.48305577,45.450776570000002
403,Orleans,3900,K1W 1K9,Innes Road,Walmart Supercentre,Mon-Sun 07:00-22:00,-10848,Mass merchandisers / club stores,https://www.walmart.ca/en/stores-near-me/orleans-ottawa-on-3065,65,1,75,Chapel Hill South,7298,"3900 Innes Road, Orleans,K1W 1K9",-75.50858478,45.451334570000000
452,Orleans,2301,K4A 3W6,Tenth Line Road,Shoppers Drug Mart,Mon-Sun: 08:00-22:00,-5580,Drugstores,https://www1.shoppersdrugmart.ca/en/store-locator/store/1433,64,0,942,Portobello South,16313,"2301 Tenth Line Road, Orleans,K4A 3W6",-75.48150227,45.451387070000003
466,Ottawa,2339,K1J 8M6,Ogilvie Road,Shoppers Drug Mart,Mon-Sun: 08:00-22:00,-7818,Drugstores,https://www.shoppersdrugmart.ca/en/store-locator/store/623,58,1,93,Rothwell Heights - Beacon Hill North,10359,"2339 Ogilvie Road, Ottawa,K1J 8M6",-75.59779521,45.451484760000000
419,Orleans,2276,K4A 0X4,Tenth Line Road,Sobeys,Mon-Sun: 07:00-22:00,-10381,Supermarkets and traditional formats,https://www.sobeys.com/stores/sobeys-orleans/,64,0,942,Portobello South,16313,"2276 Tenth Line Road, Orleans,K4A 0X4",-75.48509377,45.452189169999997
410,Orleans,5303,K1C 1T1,Canotek Road,Pronto Food Mart,Mon-Sun: 24/7,16138347925,Convenience stores and gas stations,http://pronto-food-mart.foodpages.ca/,58,1,93,Rothwell Heights - Beacon Hill North,10359,"5303 Canotek Road, Orleans,K1C 1T1",-75.58909811,45.452674160000001
177,Orleans,3869,K1C 1T1,Innes Road,Circle K,Mon-Sun: 24/7,-1529,Convenience stores and gas stations,https://www.circlek.com/ca/ontario/store-locator/CA/orleans/3869-innes-rd/0852327?utm_source=google&utm_medium=local&utm_campaign=google-local,35,0,939,Orléans Village - Chateauneuf,10651,"3869 Innes Road, Orleans,K1C 1T1",-75.51217178,45.453269570000003
454,Orleans,3940,K1W 1K9,Innes Road,Shoppers Drug Mart,Mon-Sun: 08:00-24:00,-8829,Drugstores,https://stores.shoppersdrugmart.ca/en/store/1139,65,1,75,Chapel Hill South,7298,"3940 Innes Road, Orleans,K1W 1K9",-75.50786248,45.453865069999999
205,Orleans,4042,K1C 1T1,Innes Road,Mr Gas,Mon-Fri: 06:30-00:00;Sat-Sun: 07:30-00:00,16138377652,Convenience stores and gas stations,Not Available,65,1,75,Chapel Hill South,7298,"4042 Innes Road, Orleans,K1C 1T1",-75.50500878,45.455064170000000
131,Ottawa,4270,K4A 5E6,Innes Road,Real Canadian Superstore,Mon-Sun 07:00-23:00,-2278,Supermarkets and traditional formats,https://www.realcanadiansuperstore.ca/store-locator/details/1071,64,0,942,Portobello South,16313,"4270 Innes Road, Ottawa,K4A 5E6",-75.49439477,45.456654069999999
112,Orleans,2020,K4A 3V4,Lanthier Drive,Bulk Barn,Mon-Fri: 09:30-20:30; Sat:09:30-20:00;Sun:10:00-17:00,-8842,Independent and specialty stores,https://www.bulkbarn.ca/home-en/index_deals.html,64,0,942,Portobello South,16313,"2020 Lanthier Drive, Orleans,K4A 3V4",-75.49372237,45.458016170000000
132,Orleans,2030,K4A 4X4,Tenth Line Road,Farm Boy,Mon-Fri: 08:00-21:00;Sat-Sun: 08:00-20:00,-5674,Supermarkets and traditional formats,https://www.farmboy.ca/stores/tenth-line/,64,0,942,Portobello South,16313,"2030 Tenth Line Road, Orleans,K4A 4X4",-75.48789877,45.458319570000000
307,Orleans,4358,K4A 3W3,Innes Road,Petro-Canada,Mon-Sun:24/7,-7979,Convenience stores and gas stations,https://www.petro-canada.ca/en/personal/gas-station-locations/4358-innes-road-cumberland?utm_source=G&utm_medium=lpm&utm_campaign=suncor,64,0,942,Portobello South,16313,"4358 Innes Road, Orleans,K4A 3W3",-75.49114827,45.459292069999996
408,Orleans,1619,K1C 7E2,Orléans Boulevard,Your Independent Grocer,Mon-Sun: 08:00-21:00,-8322,Supermarkets and traditional formats,https://www.yourindependentgrocer.ca/store-locator/details/0467,35,0,939,Orléans Village - Chateauneuf,10651,"1619 Orléans Boulevard, Orleans,K1C 7E2",-75.52410078,45.459560070000002
218,Orleans,4380,K4A 3W3,Innes Road,Rhema's,Mon-Tues: 10:30-19:00;Wed-Sat: 10:300-20:00;Sun: 11:00-18:00,16132527722,Independent and specialty stores,Not Available,64,0,942,Portobello South,16313,"4380 Innes Road, Orleans,K4A 3W3",-75.49015137,45.459909269999997
48,Ottawa,4510,K4A 4C5,Innes Road,Metro,Mon-Fri: 07:00-22:00;Sat-Sun: 07:00-21:00,-10286,Supermarkets and traditional formats,https://www.metro.ca/en/find-a-grocery/285,64,0,942,Portobello South,16313,"4510 Innes Road, Ottawa,K4A 4C5",-75.48407257,45.461250769999999
397,Orleans,1993,K4A 4H8,Tenth Line Road,Shell Select,Mon-Sun: 24/7,-1806,Convenience stores and gas stations,https://find.shell.com/ca/fuel/10053367-tenth-line-rd-innes-rd,107,0,920,Fallingbrook,19415,"1993 Tenth Line Road, Orleans,K4A 4H8",-75.48755197,45.461711370000003
498,Orleans,1615,K2C 7E2,Orleans Blvd,Rexall,Mon-Sun: 09:00-21:00,-1518,Drugstores,https://www.rexall.ca/storelocator/store/95?utm_source=G&utm_medium=LPM&utm_campaign=RexallPharmaPlus,35,0,939,Orléans Village - Chateauneuf,10651,"1615 Orleans Blvd, Orleans,K2C 7E2",-75.52576374,45.461767500000001
234,Woodlawn,3789,K0A 3M0,Dunrobin Rd,Nicholls General Store,Mon-Fri:06:00-21:00;Sat:07:00-21:00;Sun:08:00-21:00,16138321578,Convenience stores and gas stations,https://www.esso.ca/en-ca/find-station/ESSO-WOODLAWN-ON-NICHOLLSESSO-200321509?utm_source=google&utm_medium=organic&utm_campaign=gmb,98,1,35,Dunrobin,5569,"3789 Dunrobin Rd, Woodlawn,K0A 3M0",-76.07422027,45.462789250000000
9,Orleans,1980,K1C 1E4,St. Joseph Boulevard,Circle K,Mon-Sun: 24/7,-7258,Convenience stores and gas stations,https://www.circlek.com/store-locator/CA/orleans/1980-st-joseph-blvd/0852678,18,0,913,Chapel Hill North,10798,"1980 St. Joseph Boulevard, Orleans,K1C 1E4",-75.54060369,45.463468570000003
176,Orleans,1988,K1C 1E4,St. Joseph Boulevard,Petro-Canada,Mon-Sun:24/7,-2638,Convenience stores and gas stations,https://www.petro-canada.ca/en/personal/gas-station-locations/1988-st-joseph-blvd-orleans?utm_source=G&utm_medium=lpm&utm_campaign=suncor,18,0,913,Chapel Hill North,10798,"1988 St. Joseph Boulevard, Orleans,K1C 1E4",-75.53919279,45.464074070000002
326,Orleans,375,K1E 3E6,Des Épinettes Avenue,Lucky R Convenient Store,Mon-Sat: 08:00-21:00;Sun: 08:00-20:00,16135900670,Convenience stores and gas stations,https://lucky-r-convenient.business.site/?utm_source=gmb&utm_medium=referral,39,0,943,Queenswood Heights,12828,"375 Des Épinettes Avenue, Orleans,K1E 3E6",-75.49560298,45.466241570000001
99,Orleans,1775,K1E 3X2,Tenth Line Road,Canadian Tire Gas+,Mon-Fri: 06:00-22:00;Sat-Sun: 07:00-22:00,-3631,Convenience stores and gas stations,http://gasplus.canadiantire.ca/,107,0,920,Fallingbrook,19415,"1775 Tenth Line Road, Orleans,K1E 3X2",-75.49091207,45.467377569999996
427,Orleans,2211,K1C 7C5,St. Joseph Boulevard,L&F Montego Place,Mon-Sat: 09:00-20:00;Sun 10:00-18:0,16138308377,Convenience stores and gas stations,Not Available,53,0,915,Convent Glen - Orléans Woods,14543,"2211 St. Joseph Boulevard, Orleans,K1C 7C5",-75.53345749,45.467763869999999
439,Orleans,1937,K4A 4W9,Portobello Boulevard,Shoppers Drug Mart,Mon-Sun: 08:00-24:00,-3002,Drugstores,https://www1.shoppersdrugmart.ca/en/Store-Locator/store/1254,108,0,909,Cardinal Creek,10535,"1937 Portobello Boulevard, Orleans,K4A 4W9",-75.46587527,45.468072569999997
435,Orleans,1675,K1E 3P6,Tenth Line Road,Shoppers Drug Mart,Mon-Sat: 08:22:00;Sun: 09:00-22:00,-7527,Drugstores,https://www1.shoppersdrugmart.ca/en/Store-Locator/store/632,107,0,920,Fallingbrook,19415,"1675 Tenth Line Road, Orleans,K1E 3P6",-75.49040857,45.469018570000003
409,Orleans,2434,K1C 1G1,St. Joseph Boulevard,Al Basha,Mon-Sat: 09:30-20:30,-9884,Convenience stores and gas stations,Not available,35,0,939,Orléans Village - Chateauneuf,10651,"2434 St. Joseph Boulevard, Orleans,K1C 1G1",-75.52778149,45.469053570000000
391,Orleans,5150,K4A 0G4,Innes Road,Sobeys,Mon-Sun: 07:00-22:00,-3407,Supermarkets and traditional formats,https://www.sobeys.com/en/stores/sobeys-trim-innes/,64,0,942,Portobello South,16313,"5150 Innes Road, Orleans,K4A 0G4",-75.45609656,45.469456070000000
4,Orleans,1675,K1E 3P6,Tenth Line Road,Metro,Mon-Fri: 08:00-22:00; Sat-Sun: 08:00-21:00,-4063,Supermarkets and traditional formats,https://www.metro.ca/en/find-a-grocery/292,107,0,920,Fallingbrook,19415,"1675 Tenth Line Road, Orleans,K1E 3P6",-75.49118547,45.470041569999999
178,Ottawa,2580,K1C 1G3,St. Joseph Boulevard,Desi Food Market,Mon-Thu:11:00-19:00;Fri:14:00-19:30;Sat: 10:00-19:00;Sun 11:00-18:00,-8583,Convenience stores and gas stations,https://www.desifoodmarket.ca/,35,0,939,Orléans Village - Chateauneuf,10651,"2580 St. Joseph Boulevard, Ottawa,K1C 1G3",-75.52509138,45.470559569999999
92,Ottawa,1985,K4A 4R7,Trim Road,Circle K,Mon-Sun: 24/7,-3077,Convenience stores and gas stations,https://www.circlek.com/ca/ontario/car-wash?utm_source=google&utm_medium=local&utm_campaign=google-local,108,0,909,Cardinal Creek,10535,"1985 Trim Road, Ottawa,K4A 4R7",-75.45402576,45.471342770000000
179,Ottawa,2670,K1C 1G3,St. Joseph Boulevard,Pioneer - Gas Station,Mon-Sun:24/7,16138375559,Convenience stores and gas stations,https://www.pioneer.ca/?utm_source=G&utm_medium=lpm&utm_campaign=parkland,35,0,939,Orléans Village - Chateauneuf,10651,"2670 St. Joseph Boulevard, Ottawa,K1C 1G3",-75.52284978,45.471470070000002
260,Fitzroy Harbour,2391,K0A 1X0,Fitzroy Street,The Harbour Store,Mon-Fri: 08:30-20:00; Sat-Sun 09:00-20:00,-4443,Independent and specialty stores,Not available,83,0,922,Fitzroy,3299,"2391 Fitzroy Street, Fitzroy Harbour,K0A 1X0",-76.21503501,45.471475540000000
446,Orleans,2974,K1C 1J7,St. Joseph Boulevard,Shoppers Drug Mart,Mon-Sun: 08:00-22:00,-2988,Drugstores,https://stores.shoppersdrugmart.ca/en/store/1230,39,0,943,Queenswood Heights,12828,"2974 St. Joseph Boulevard, Orleans,K1C 1J7",-75.51644688,45.475142869999999
411,Orleans,2975,K1C 7C2,St. Joseph Boulevard,Shell Select,Mon-Sun: 06:00-23:00,-5435,Convenience stores and gas stations,https://find.shell.com/ca/fuel/10052649-st-joseph-place-d-orleans,53,0,915,Convent Glen - Orléans Woods,14543,"2975 St. Joseph Boulevard, Orleans,K1C 7C2",-75.51658588,45.476000769999999
389,Ottawa,1226,K1C 7K3,Place-d'Orléans Drive,No Frills,"Mo-Fr 08:00-21:00; Sa,Su 08:00-19:00",-8305,Supermarkets and traditional formats,https://www.nofrills.ca/en_CA/storedetail.800002.html,53,0,915,Convent Glen - Orléans Woods,14543,"1226 Place-d'Orléans Drive, Ottawa,K1C 7K3",-75.52261519,45.476274770000003
431,Orleans,385,K1E 3H4,Tompkins Avenue,Baghlan Market,Mon-Sun: 10:00-20:00,-11241,Independent and specialty stores,https://baghlan-market.business.site/,39,0,943,Queenswood Heights,12828,"385 Tompkins Avenue, Orleans,K1E 3H4",-75.49836448,45.477455569999996
304,Orleans,385,K1E 3H4,Tompkins Avenue,Circle K,Mon-Sun: 24/7,+1-613)-837-7807,Convenience stores and gas stations,https://www.circlek.com/ca/ontario/store-locator/CA/orleans/385-tompkins-ave/0868062?utm_source=google&utm_medium=local&utm_campaign=google-local,39,0,943,Queenswood Heights,12828,"385 Tompkins Avenue, Orleans,K1E 3H4",-75.49817498,45.477510770000002
77,Ottawa,3035,K1E 1E1,St. Joseph Boulevard,Farm Boy,Mon-Fri: 08:00-21:00;Sat-Sun: 08:00-20:00,-3032,Supermarkets and traditional formats,https://www.farmboy.ca/stores/orleans/,53,0,915,Convent Glen - Orléans Woods,14543,"3035 St. Joseph Boulevard, Ottawa,K1E 1E1",-75.51329248,45.477732469999999
499,Orleans,110,K1C 2L9,Place d'Orléans Dr,Rexall,Mon-Fri: 09:00-21:00; Sat: 09:00-19:00;Sun: 10:00-17:00,-8742,Drugstores,https://www.rexall.ca/storelocator/store/8151?utm_source=G&utm_medium=LPM&utm_campaign=RexallPharmaPlus,53,0,915,Convent Glen - Orléans Woods,14543,"110 Place d'Orléans Dr , Orleans,K1C 2L9",-75.51567813,45.478303990000001
181,Orleans,3055,K1C 1T1,St. Joseph Boulevard,Petro-Canada,Mon-Sun:24/7,-2834,Convenience stores and gas stations,https://www.petro-canada.ca/en/personal/gas-station-locations/3055-stjoseph-blvd-orleans?utm_source=G&utm_medium=lpm&utm_campaign=suncor,39,0,943,Queenswood Heights,12828,"3055 St. Joseph Boulevard, Orleans,K1C 1T1",-75.51231778,45.478439569999999
89,Orleans,6469,K1C 2R1,Jeanne-d'Arc Boulevard North,Circle K,Mon-Sun: 24/7,-2331,Convenience stores and gas stations,https://www.circlek.com/store-locator/CA/orleans/6469-jeanne-d-arc-boulevard-n/0801816,53,0,915,Convent Glen - Orléans Woods,14543,"6469 Jeanne-d'Arc Boulevard North, Orleans,K1C 2R1",-75.53745079,45.479336070000002
467,Orleans,6491,K1C 2R1,Jeanne-d'Arc Boulevard North,Shoppers Drug Mart,Mon-Sun: 08:00-22:00,-2970,Drugstores,https://stores.shoppersdrugmart.ca/en/store/630,53,0,915,Convent Glen - Orléans Woods,14543,"6491 Jeanne-d'Arc Boulevard North, Orleans,K1C 2R1",-75.53687579,45.479959670000000
3,Orleans,6509,K1C 2R1,Jeanne-d'Arc Boulevard North,Metro,Mon-Fri: 08:00-22:00; Sat-Sun: 08:00-21:00,-2619,Supermarkets and traditional formats,https://www.metro.ca/en/find-a-grocery/280,53,0,915,Convent Glen - Orléans Woods,14543,"6509 Jeanne-d'Arc Boulevard North, Orleans,K1C 2R1",-75.53622879,45.481026569999997
327,Ottawa,920,K4A 0B4,Watters Road,FreshCo,Mon-Sun: 07:00-23:00,+1(613) 841-9454,Supermarkets and traditional formats,https://freshco.com/stores/freshco-orleans/,108,0,909,Cardinal Creek,10535,"920 Watters Road, Ottawa,K4A 0B4",-75.47485717,45.482966570000002
317,Orleans,915, K4A 3K5,Watters Road,Quickie,Mon-Fri: 06:00- 23:00;Sat-Sun: 07:00-23:00,-8425,Convenience stores and gas stations,https://www.quickiestores.com/,107,0,920,Fallingbrook,19415,"915 Watters Road, Orleans, K4A 3K5",-75.47557097,45.483660770000000
396,Woodlawn,115,K0A 3M0,Constance Bay Road,Constance Bay General Store,Mon-Sat: 09:00-20:00;Sun 11:00-17:55,Not available,Convenience stores and gas stations,Not available,84,1,29,Constance Bay,2371,"115 Constance Bay Road, Woodlawn,K0A 3M0",-76.07353697,45.486505549999997
406,Orleans,8154,K1E 2H5,Jeanne-d'Arc Boulevard North,Maggy's Mart,Mon-Sat:08:00-22:00; Sun:09:00-22:00,16138246897,Convenience stores and gas stations,Not Available,59,1,76,Chatelaine Village,4174,"8154 Jeanne-d'Arc Boulevard North, Orleans,K1E 2H5",-75.51162728,45.487447269999997
135,Ottawa,1270,K4A 3P7,Trim Road,Mr Gas,Mon-Sun: 05:00-00:00,16138247126,Convenience stores and gas stations,https://mrgasltd.ca/,107,0,920,Fallingbrook,19415,"1270 Trim Road, Ottawa,K4A 3P7",-75.47986837,45.490749280000003
309,Cumberland,980,K4C 1A1,Cameron St,Waypoint Convenience,Mon-Fri: 05:00-23:00;Sat: 06:00-23:00;Sun: 06:30-23:00,16138333038,Convenience stores and gas stations,https://waypointconvenience.com/,85,0,916,Cumberland,4172,"980 Cameron St, Cumberland,K4C 1A1",-75.41145975,45.517784880000001
